<?xml version='1.0' encoding='utf-8'?>
<osm generator="OSM Conflator 1.3.1" version="0.6"><changeset><tag k="type" v="import" /><tag k="created_by" v="OSM Conflator 1.3.1" /><tag k="source" v="RAFVG" /></changeset><node action="modify" id="5678426771" lat="45.905031" lon="13.051747" version="1"><tag k="start_date" v="1558" /><tag k="denotation" v="natural_monument" /><tag k="leaf_type" v="broadleaved" /><tag k="ref:mipaaf" v="01/A810/UD/06" /><tag k="ref" v="01/A810/UD/06" /><tag k="height" v="21" /><tag k="species:it" v="Farnia" /><tag k="species" v="Quercus robur L." /><tag k="circumference" v="7.8" /><tag k="natural" v="tree" /><tag k="ele" v="18" /><tag k="taxon:it" v="Farnia" /><tag k="leaf_cycle" v="deciduous" /><tag k="taxon" v="Quercus robur" /></node><node action="modify" id="2124618451" lat="45.6081093" lon="13.858512" version="2"><tag k="start_date" v="1667" /><tag k="leaf_type" v="broadleaved" /><tag k="leaf_cycle" v="deciduous" /><tag k="height" v="12" /><tag k="taxon:it" v="Tiglio selvatico" /><tag k="ref" v="14/L424/TS/06" /><tag k="circumference" v="4.03" /><tag k="type" v="broad_leaved" /><tag k="natural" v="tree" /><tag k="genus:sl" v="lipa" /><tag k="ele" v="430" /><tag k="taxon" v="Tilia cordata" /><tag k="genus" v="Tilia" /><tag k="genus:de" v="Linde" /><tag k="name:botanical" v="Tilia" /><tag k="genus:it" v="tiglio" /></node><node action="modify" id="4438216955" lat="46.0546246" lon="13.2464452" version="1"><tag k="natural" v="tree" /><tag k="denotation" v="natural_monument" /><tag k="leaf_type" v="broadleaved" /><tag k="taxon:it" v="Platano comune" /><tag k="leaf_cycle" v="deciduous" /><tag k="ele" v="172" /><tag k="height" v="32" /><tag k="ref" v="23/l483/UD/06" /><tag k="taxon" v="Platanus acerifolia" /><tag k="circumference" v="5.08" /></node><node action="modify" id="5774068562" lat="46.0711207" lon="13.2294979" version="2"><tag k="natural" v="tree" /><tag k="ele" v="172" /><tag k="taxon:it" v="Cedro dell'Himalaya" /><tag k="leaf_cycle" v="evergreen" /><tag k="leaf_type" v="needleleaved" /><tag k="height" v="31" /><tag k="ref" v="16/l483/UD/06" /><tag k="taxon" v="Cedrus deodara" /><tag k="circumference" v="5.7" /></node><node action="modify" id="4387472103" lat="46.0606704" lon="13.2290423" version="1"><tag k="natural" v="tree" /><tag k="ele" v="220" /><tag k="taxon:it" v="Ippocastano" /><tag k="leaf_cycle" v="deciduous" /><tag k="leaf_type" v="broadleaved" /><tag k="height" v="22" /><tag k="ref" v="04/l483/UD/06" /><tag k="taxon" v="Aesculus hippocastanum" /><tag k="circumference" v="4.14" /></node><node action="modify" id="5543849266" lat="46.0626777" lon="13.2368979" version="1"><tag k="natural" v="tree" /><tag k="ele" v="108" /><tag k="taxon:it" v="Cedro di Cipro" /><tag k="leaf_cycle" v="evergreen" /><tag k="leaf_type" v="needleleaved" /><tag k="height" v="25" /><tag k="ref" v="27/l483/UD/06" /><tag k="taxon" v="Cedrus brevifolia" /><tag k="circumference" v="3" /></node><node action="modify" id="5697339360" lat="46.506708" lon="13.438822" version="1"><tag k="start_date" v="1620" /><tag k="denotation" v="natural_monument" /><tag k="leaf_type" v="broadleaved" /><tag k="ref:mipaaf" v="01/E847/UD/06" /><tag k="ref" v="01/E847/UD/06" /><tag k="height" v="22" /><tag k="species:it" v="Tiglio selvatico" /><tag k="species" v="Tilia cordata Mill." /><tag k="circumference" v="6.63" /><tag k="natural" v="tree" /><tag k="ele" v="720" /><tag k="taxon:it" v="Tiglio selvatico" /><tag k="leaf_cycle" v="deciduous" /><tag k="taxon" v="Tilia cordata" /></node><node action="modify" id="4216081495" lat="46.024126" lon="13.4293653" version="3"><tag k="name" v="Cipresso mediterraneo" /><tag k="start_date" v="1580" /><tag k="denotation" v="natural_monument" /><tag k="leaf_type" v="needleleaved" /><tag k="height" v="21" /><tag k="taxon:it" v="Cipresso comune" /><tag k="ref" v="02/H029/UD/06" /><tag k="access" v="yes" /><tag k="circumference" v="5" /><tag k="natural" v="tree" /><tag k="ele" v="150" /><tag k="genus" v="Cupressus L." /><tag k="leaf_cycle" v="evergreen" /><tag k="name:botanical" v="Cupressus sempervirens L." /><tag k="taxon" v="Cupressus sempervirens" /></node><node action="modify" id="2874024034" lat="46.0942322" lon="13.4273356" version="4"><tag k="name" v="Pino Nero Laricio" /><tag k="start_date" v="1890" /><tag k="leaf_type" v="broadleaved" /><tag k="name:botanical" v="Pinus Nigra" /><tag k="height" v="25" /><tag k="ref" v="01/C758/UD/06" /><tag k="species" v="Calabrica" /><tag k="circumference" v="3.95" /><tag k="type" v="broad_leaved" /><tag k="natural" v="tree" /><tag k="ele" v="130" /><tag k="taxon:it" v="Pino nero" /><tag k="leaf_cycle" v="evergreen" /><tag k="loc_name" v="Arnoldo" /><tag k="taxon" v="Pinus nigra" /></node><node action="modify" id="2940135286" lat="45.9507014" lon="13.0116112" version="1"><tag k="name" v="Cedro Bianco della California" /><tag k="natural" v="tree" /><tag k="ele" v="35" /><tag k="taxon:it" v="Ginco" /><tag k="leaf_cycle" v="deciduous" /><tag k="leaf_type" v="broadleaved" /><tag k="height" v="25" /><tag k="ref" v="06/C817/UD/06" /><tag k="type" v="conifer" /><tag k="taxon" v="Ginkgo biloba" /><tag k="circumference" v="2.5" /></node><node action="modify" id="5594894907" lat="46.0579996" lon="13.2461192" version="1"><tag k="natural" v="tree" /><tag k="ele" v="170" /><tag k="taxon:it" v="Cipresso del Cashmere" /><tag k="leaf_cycle" v="evergreen" /><tag k="leaf_type" v="needleleaved" /><tag k="height" v="20" /><tag k="ref" v="28/l483/UD/06" /><tag k="taxon" v="Cupressus cashmeriana" /><tag k="circumference" v="3" /></node><node action="modify" id="2940135287" lat="45.9501489" lon="13.0087733" version="1"><tag k="name" v="Cipresso Piramidale" /><tag k="natural" v="tree" /><tag k="ele" v="35" /><tag k="taxon:it" v="Abete del Caucaso" /><tag k="leaf_cycle" v="evergreen" /><tag k="leaf_type" v="needleleaved" /><tag k="height" v="32" /><tag k="ref" v="05/C817/UD/06" /><tag k="type" v="conifer" /><tag k="taxon" v="Abies nordmanniana" /><tag k="circumference" v="3.95" /></node><node action="modify" id="2940135289" lat="45.9492938" lon="13.009209" version="1"><tag k="name" v="Paulonia" /><tag k="natural" v="tree" /><tag k="ele" v="35" /><tag k="taxon:it" v="Platano comune" /><tag k="leaf_cycle" v="deciduous" /><tag k="leaf_type" v="broadleaved" /><tag k="height" v="30" /><tag k="ref" v="09/C817/UD/06" /><tag k="taxon" v="Platanus acerifolia" /><tag k="circumference" v="4.3" /></node><node action="modify" id="5295657166" lat="45.9454345" lon="13.6210041" version="1"><tag k="natural" v="tree" /><tag k="denotation" v="natural_monument" /><tag k="leaf_type" v="needleleaved" /><tag k="taxon:it" v="Magnolia" /><tag k="leaf_cycle" v="deciduous" /><tag k="ele" v="85" /><tag k="height" v="18" /><tag k="ref" v="05/E098/GO/06" /><tag k="historic" v="yes" /><tag k="taxon" v="Magnolia grandiflora" /><tag k="circumference" v="2.72" /></node><node id="-1" lat="45.980925" lon="13.498972222222221" version="1"><tag k="natural" v="tree" /><tag k="ele" v="109" /><tag k="taxon:it" v="Roverella" /><tag k="leaf_cycle" v="deciduous" /><tag k="leaf_type" v="broadleaved" /><tag k="height" v="15" /><tag k="ref" v="01/D014/GO/06" /><tag k="taxon" v="Quercus pubescens" /><tag k="circumference" v="4.33" /></node><node id="-2" lat="45.888888888888886" lon="13.499430555555556" version="1"><tag k="natural" v="tree" /><tag k="ele" v="30" /><tag k="taxon:it" v="Pino d'Aleppo" /><tag k="leaf_cycle" v="evergreen" /><tag k="leaf_type" v="broadleaved" /><tag k="height" v="19" /><tag k="ref" v="02/E124/GO/06" /><tag k="taxon" v="Pinus halepensis" /><tag k="circumference" v="3.25" /></node><node id="-3" lat="46.215605555555555" lon="13.22285" version="1"><tag k="natural" v="tree" /><tag k="ele" v="230" /><tag k="taxon:it" v="Platano orientale" /><tag k="leaf_cycle" v="deciduous" /><tag k="leaf_type" v="broadleaved" /><tag k="height" v="30" /><tag k="ref" v="01/L050/UD/06" /><tag k="taxon" v="Platanus orientalis" /><tag k="circumference" v="5.5" /></node><node id="-4" lat="46.21457222222222" lon="13.225041666666666" version="1"><tag k="natural" v="tree" /><tag k="ele" v="230" /><tag k="taxon:it" v="Pioppo nero" /><tag k="leaf_cycle" v="deciduous" /><tag k="leaf_type" v="broadleaved" /><tag k="height" v="24" /><tag k="ref" v="02/L050/UD/06" /><tag k="taxon" v="Populus nigra" /><tag k="circumference" v="4.5" /></node><node id="-5" lat="46.50903611111111" lon="13.53436111111111" version="1"><tag k="natural" v="tree" /><tag k="denotation" v="natural_monument" /><tag k="ele" v="802" /><tag k="taxon:it" v="Pero selvatico" /><tag k="areal" v="yes" /><tag k="historic" v="yes" /><tag k="height" v="18" /><tag k="ref" v="01/L057/UD/06" /><tag k="taxon" v="" /><tag k="circumference" v="3" /></node><node id="-6" lat="46.474808333333335" lon="13.535155555555555" version="1"><tag k="natural" v="tree" /><tag k="ele" v="1570" /><tag k="taxon:it" v="Larice" /><tag k="leaf_cycle" v="deciduous" /><tag k="leaf_type" v="needleleaved" /><tag k="height" v="27" /><tag k="ref" v="02/L057/UD/06" /><tag k="taxon" v="Larix decidua" /><tag k="circumference" v="5.31" /></node><node id="-7" lat="46.475611111111114" lon="13.536072222222222" version="1"><tag k="natural" v="tree" /><tag k="ele" v="1573" /><tag k="taxon:it" v="Abete rosso" /><tag k="leaf_cycle" v="evergreen" /><tag k="leaf_type" v="needleleaved" /><tag k="height" v="31" /><tag k="ref" v="03/L057/UD/06" /><tag k="taxon" v="Picea abies" /><tag k="circumference" v="4.45" /></node><node id="-8" lat="46.47551388888889" lon="13.535683333333333" version="1"><tag k="natural" v="tree" /><tag k="ele" v="1573" /><tag k="taxon:it" v="Abete rosso" /><tag k="leaf_cycle" v="evergreen" /><tag k="leaf_type" v="needleleaved" /><tag k="height" v="32" /><tag k="ref" v="04/L057/UD/06" /><tag k="taxon" v="Picea abies" /><tag k="circumference" v="5.45" /></node><node id="-9" lat="46.54076111111111" lon="13.536486111111111" version="1"><tag k="natural" v="tree" /><tag k="ele" v="1310" /><tag k="taxon:it" v="Acero di monte" /><tag k="leaf_cycle" v="deciduous" /><tag k="leaf_type" v="broadleaved" /><tag k="height" v="11" /><tag k="ref" v="05/L057/UD/06" /><tag k="taxon" v="Acer pseudoplatanus" /><tag k="circumference" v="4.5" /></node><node id="-10" lat="46.49248611111111" lon="13.686766666666667" version="1"><tag k="natural" v="tree" /><tag k="ele" v="868" /><tag k="taxon:it" v="Acero di monte" /><tag k="leaf_cycle" v="deciduous" /><tag k="leaf_type" v="broadleaved" /><tag k="height" v="29.5" /><tag k="ref" v="06/L057/UD/06" /><tag k="taxon" v="Acer pseudoplatanus" /><tag k="circumference" v="4.45" /></node><node id="-11" lat="46.51205" lon="13.624347222222223" version="1"><tag k="natural" v="tree" /><tag k="ele" v="770" /><tag k="taxon:it" v="Noce comune" /><tag k="leaf_cycle" v="deciduous" /><tag k="leaf_type" v="broadleaved" /><tag k="height" v="19" /><tag k="ref" v="07/L057/UD/06" /><tag k="taxon" v="Juglans regia" /><tag k="circumference" v="4.05" /></node><node id="-12" lat="46.498244444444445" lon="13.595688888888889" version="1"><tag k="natural" v="tree" /><tag k="ele" v="800" /><tag k="taxon:it" v="Tiglio selvatico" /><tag k="leaf_cycle" v="deciduous" /><tag k="leaf_type" v="broadleaved" /><tag k="height" v="25" /><tag k="ref" v="08/L057/UD/06" /><tag k="historic" v="yes" /><tag k="taxon" v="Tilia cordata" /><tag k="circumference" v="3.3" /></node><node id="-13" lat="45.94093333333333" lon="13.54205" version="1"><tag k="natural" v="tree" /><tag k="ele" v="95" /><tag k="taxon:it" v="Farnia" /><tag k="leaf_cycle" v="deciduous" /><tag k="leaf_type" v="broadleaved" /><tag k="height" v="16" /><tag k="ref" v="01/F767/GO/06" /><tag k="taxon" v="Quercus robur" /><tag k="circumference" v="5" /></node><node id="-14" lat="46.50660555555555" lon="13.568297222222222" version="1"><tag k="natural" v="tree" /><tag k="ele" v="752" /><tag k="taxon:it" v="Salice bianco" /><tag k="leaf_cycle" v="deciduous" /><tag k="leaf_type" v="broadleaved" /><tag k="height" v="23" /><tag k="ref" v="09/L057/UD/06" /><tag k="taxon" v="Salix alba" /><tag k="circumference" v="4.45" /></node><node id="-15" lat="46.43763611111111" lon="13.585497222222223" version="1"><tag k="natural" v="tree" /><tag k="ele" v="1270" /><tag k="taxon:it" v="Abete bianco" /><tag k="leaf_cycle" v="evergreen" /><tag k="leaf_type" v="needleleaved" /><tag k="height" v="35" /><tag k="ref" v="10/L057/UD/06" /><tag k="taxon" v="Abies alba" /><tag k="circumference" v="4.95" /></node><node id="-16" lat="46.438180555555554" lon="13.547816666666666" version="1"><tag k="natural" v="tree" /><tag k="ele" v="1450" /><tag k="taxon:it" v="Abete rosso" /><tag k="leaf_cycle" v="evergreen" /><tag k="leaf_type" v="needleleaved" /><tag k="height" v="36" /><tag k="ref" v="11/L057/UD/06" /><tag k="taxon" v="Picea abies" /><tag k="circumference" v="4.9" /></node><node id="-17" lat="46.497841666666666" lon="13.598694444444446" version="1"><tag k="natural" v="tree" /><tag k="ele" v="800" /><tag k="taxon:it" v="Olmo montano" /><tag k="leaf_cycle" v="deciduous" /><tag k="leaf_type" v="broadleaved" /><tag k="height" v="30" /><tag k="ref" v="12/L057/UD/06" /><tag k="taxon" v="Ulmus glabra" /><tag k="circumference" v="4.6" /></node><node id="-18" lat="46.51068055555555" lon="13.526375000000002" version="1"><tag k="natural" v="tree" /><tag k="ele" v="841" /><tag k="taxon:it" v="Faggio" /><tag k="leaf_cycle" v="deciduous" /><tag k="leaf_type" v="broadleaved" /><tag k="height" v="32" /><tag k="ref" v="13/L057/UD/06" /><tag k="taxon" v="Fagus sylvatica" /><tag k="circumference" v="5.25" /></node><node id="-19" lat="46.15911944444444" lon="13.21525" version="1"><tag k="natural" v="tree" /><tag k="ele" v="210" /><tag k="taxon:it" v="Cedro dell'Himalaya" /><tag k="leaf_cycle" v="evergreen" /><tag k="leaf_type" v="needleleaved" /><tag k="height" v="31" /><tag k="ref" v="01/L421/UD/06" /><tag k="taxon" v="Cedrus deodara" /><tag k="circumference" v="4.5" /></node><node id="-20" lat="46.161775" lon="13.211855555555555" version="1"><tag k="natural" v="tree" /><tag k="ele" v="210" /><tag k="taxon:it" v="Glicine" /><tag k="height" v="2.5" /><tag k="ref" v="02/L421/UD/06" /><tag k="taxon" v="Wisteria sinensis" /><tag k="circumference" v="1.6" /></node><node id="-21" lat="46.1736" lon="13.218811111111112" version="1"><tag k="natural" v="tree" /><tag k="ele" v="210" /><tag k="taxon:it" v="Pioppo canescente" /><tag k="leaf_cycle" v="deciduous" /><tag k="leaf_type" v="broadleaved" /><tag k="height" v="28" /><tag k="ref" v="03/L421/UD/06" /><tag k="taxon" v="Populus canescens" /><tag k="circumference" v="3.7" /></node><node id="-22" lat="46.17349166666666" lon="13.218705555555555" version="1"><tag k="natural" v="tree" /><tag k="ele" v="210" /><tag k="taxon:it" v="Cedro dell'Himalaya" /><tag k="areal" v="yes" /><tag k="height" v="25" /><tag k="ref" v="04/L421/UD/06" /><tag k="taxon" v="Cedrus deodara" /><tag k="circumference" v="3.5" /></node><node id="-23" lat="46.173383333333334" lon="13.219469444444444" version="1"><tag k="natural" v="tree" /><tag k="ele" v="210" /><tag k="taxon:it" v="Cipresso di Monterey" /><tag k="leaf_cycle" v="deciduous" /><tag k="leaf_type" v="broadleaved" /><tag k="height" v="20" /><tag k="ref" v="06/L421/UD/06" /><tag k="taxon" v="Cupressus macrocarpa" /><tag k="circumference" v="3.35" /></node><node id="-24" lat="45.825252777777784" lon="13.500419444444445" version="1"><tag k="natural" v="tree" /><tag k="ele" v="11" /><tag k="taxon:it" v="Pioppo nero" /><tag k="leaf_cycle" v="deciduous" /><tag k="leaf_type" v="broadleaved" /><tag k="height" v="25" /><tag k="ref" v="01/H531/GO/06" /><tag k="taxon" v="Populus nigra" /><tag k="circumference" v="4.1" /></node><node id="-25" lat="46.06429166666666" lon="13.23651111111111" version="1"><tag k="natural" v="tree" /><tag k="denotation" v="natural_monument" /><tag k="leaf_type" v="needleleaved" /><tag k="taxon:it" v="Cedro dell'Himalaya" /><tag k="leaf_cycle" v="evergreen" /><tag k="ele" v="222" /><tag k="height" v="30" /><tag k="ref" v="01/l483/UD/06" /><tag k="taxon" v="Cedrus deodara" /><tag k="circumference" v="5.22" /></node><node id="-26" lat="46.06409444444444" lon="13.235888888888889" version="1"><tag k="natural" v="tree" /><tag k="ele" v="223" /><tag k="taxon:it" v="Cedro dell'Himalaya" /><tag k="leaf_cycle" v="evergreen" /><tag k="leaf_type" v="needleleaved" /><tag k="height" v="28" /><tag k="ref" v="02/l483/UD/06" /><tag k="taxon" v="Cedrus deodara" /><tag k="circumference" v="4.48" /></node><node id="-27" lat="46.06448611111111" lon="13.236749999999999" version="1"><tag k="natural" v="tree" /><tag k="ele" v="225" /><tag k="taxon:it" v="Cedro dell'Himalaya" /><tag k="leaf_cycle" v="evergreen" /><tag k="leaf_type" v="needleleaved" /><tag k="height" v="27" /><tag k="ref" v="03/l483/UD/06" /><tag k="taxon" v="Cedrus deodara" /><tag k="circumference" v="3.95" /></node><node id="-28" lat="46.063088888888885" lon="13.239552777777776" version="1"><tag k="natural" v="tree" /><tag k="ele" v="173" /><tag k="taxon:it" v="Cedro dell'Himalaya" /><tag k="leaf_cycle" v="evergreen" /><tag k="leaf_type" v="needleleaved" /><tag k="height" v="25" /><tag k="ref" v="06/l483/UD/06" /><tag k="taxon" v="Cedrus deodara" /><tag k="circumference" v="4.27" /></node><node id="-29" lat="46.06285277777778" lon="13.23946111111111" version="1"><tag k="natural" v="tree" /><tag k="denotation" v="natural_monument" /><tag k="leaf_type" v="broadleaved" /><tag k="taxon:it" v="Farnia" /><tag k="leaf_cycle" v="deciduous" /><tag k="ele" v="173" /><tag k="height" v="28" /><tag k="ref" v="07/l483/UD/06" /><tag k="taxon" v="Quercus robur" /><tag k="circumference" v="4.3" /></node><node id="-30" lat="46.062777777777775" lon="13.239763888888888" version="1"><tag k="natural" v="tree" /><tag k="ele" v="173" /><tag k="taxon:it" v="Cedro dell'Atlante" /><tag k="leaf_cycle" v="evergreen" /><tag k="leaf_type" v="needleleaved" /><tag k="height" v="25" /><tag k="ref" v="08/l483/UD/06" /><tag k="taxon" v="Cedrus atlantica" /><tag k="circumference" v="4.73" /></node><node id="-31" lat="46.063741666666665" lon="13.238902777777778" version="1"><tag k="natural" v="tree" /><tag k="denotation" v="natural_monument" /><tag k="leaf_type" v="broadleaved" /><tag k="taxon:it" v="Gelso bianco" /><tag k="leaf_cycle" v="deciduous" /><tag k="ele" v="171" /><tag k="height" v="13" /><tag k="ref" v="12/l483/UD/06" /><tag k="taxon" v="Morus alba" /><tag k="circumference" v="3.93" /></node><node id="-32" lat="46.06381666666666" lon="13.239252777777777" version="1"><tag k="natural" v="tree" /><tag k="denotation" v="natural_monument" /><tag k="leaf_type" v="needleleaved" /><tag k="taxon:it" v="Libocedro" /><tag k="leaf_cycle" v="evergreen" /><tag k="ele" v="171" /><tag k="height" v="20" /><tag k="ref" v="13/l483/UD/06" /><tag k="taxon" v="Calocedrus decurrens" /><tag k="circumference" v="6.94" /></node><node id="-33" lat="46.06344722222222" lon="13.239777777777777" version="1"><tag k="natural" v="tree" /><tag k="denotation" v="natural_monument" /><tag k="ele" v="171" /><tag k="taxon:it" v="Tasso del Giappone" /><tag k="areal" v="yes" /><tag k="height" v="20" /><tag k="ref" v="14/l483/UD/06" /><tag k="taxon" v="Torreya nucifera" /><tag k="circumference" v="3.2" /></node><node id="-34" lat="45.88692777777778" lon="13.581819444444443" version="1"><tag k="natural" v="tree" /><tag k="ele" v="30" /><tag k="taxon:it" v="Glicine" /><tag k="height" v="14" /><tag k="ref" v="02/I479/GO706" /><tag k="taxon" v="Wisteria sinensis" /><tag k="circumference" v="1.2" /></node><node id="-35" lat="46.06333333333333" lon="13.228163888888888" version="1"><tag k="natural" v="tree" /><tag k="denotation" v="natural_monument" /><tag k="leaf_type" v="needleleaved" /><tag k="taxon:it" v="Cedro dell'Himalaya" /><tag k="leaf_cycle" v="evergreen" /><tag k="ele" v="172" /><tag k="height" v="35" /><tag k="ref" v="17/l483/UD/06" /><tag k="taxon" v="Cedrus deodara" /><tag k="circumference" v="6.1" /></node><node id="-36" lat="46.06391111111111" lon="13.227766666666668" version="1"><tag k="natural" v="tree" /><tag k="ele" v="172" /><tag k="taxon:it" v="Cedro dell'Himalaya" /><tag k="leaf_cycle" v="evergreen" /><tag k="leaf_type" v="needleleaved" /><tag k="height" v="32" /><tag k="ref" v="18/l483/UD/06" /><tag k="taxon" v="Cedrus deodara" /><tag k="circumference" v="4.3" /></node><node id="-37" lat="46.06464444444444" lon="13.237222222222222" version="1"><tag k="natural" v="tree" /><tag k="ele" v="224" /><tag k="taxon:it" v="Bagolaro" /><tag k="leaf_cycle" v="evergreen" /><tag k="leaf_type" v="broadleaved" /><tag k="height" v="22" /><tag k="ref" v="22/l483/UD/06" /><tag k="taxon" v="Celtis australis" /><tag k="circumference" v="4.48" /></node><node id="-38" lat="46.069383333333334" lon="13.236019444444443" version="1"><tag k="areal" v="yes" /><tag k="natural" v="tree" /><tag k="denotation" v="natural_monument" /><tag k="ele" v="175" /><tag k="taxon:it" v="Eleagno ibrido" /><tag k="leaf_cycle" v="evergreen" /><tag k="height" v="8" /><tag k="ref" v="25/l483/UD/06" /><tag k="taxon" v="Elaeagnus x" /><tag k="circumference" v="n. 40 esemplari con piccole circonferenze dei fusti" /></node><node id="-39" lat="46.08264166666667" lon="13.186380555555555" version="1"><tag k="natural" v="tree" /><tag k="ele" v="160" /><tag k="taxon:it" v="Pioppo nero" /><tag k="leaf_cycle" v="deciduous" /><tag k="leaf_type" v="broadleaved" /><tag k="height" v="24" /><tag k="ref" v="26/l483/UD/06" /><tag k="taxon" v="Populus nigra" /><tag k="circumference" v="4" /></node><node id="-40" lat="45.88856944444444" lon="12.98862222222222" version="1"><tag k="natural" v="tree" /><tag k="ele" v="18" /><tag k="taxon:it" v="Farnia" /><tag k="leaf_cycle" v="deciduous" /><tag k="leaf_type" v="broadleaved" /><tag k="height" v="29" /><tag k="ref" v="01/L686/UD(06" /><tag k="taxon" v="Quercus robur" /><tag k="circumference" v="5.8" /></node><node id="-41" lat="45.80524722222222" lon="13.500197222222223" version="1"><tag k="natural" v="tree" /><tag k="ele" v="6" /><tag k="taxon:it" v="Bagolaro" /><tag k="leaf_cycle" v="evergreen" /><tag k="leaf_type" v="broadleaved" /><tag k="height" v="16" /><tag k="ref" v="01/I939/GO/06" /><tag k="historic" v="yes" /><tag k="taxon" v="Celtis australis" /><tag k="circumference" v="4.36" /></node><node id="-42" lat="46.12952777777778" lon="12.528180555555556" version="1"><tag k="natural" v="tree" /><tag k="ele" v="1193" /><tag k="taxon:it" v="Faggio" /><tag k="leaf_cycle" v="deciduous" /><tag k="leaf_type" v="broadleaved" /><tag k="height" v="18" /><tag k="ref" v="01/A516/PN/06" /><tag k="taxon" v="Fagus sylvatica" /><tag k="circumference" v="4.7" /></node><node id="-43" lat="46.07671944444445" lon="12.569986111111112" version="1"><tag k="natural" v="tree" /><tag k="ele" v="300" /><tag k="taxon:it" v="Acero campestre" /><tag k="leaf_cycle" v="deciduous" /><tag k="leaf_type" v="broadleaved" /><tag k="height" v="12" /><tag k="ref" v="02/A516/PN/06" /><tag k="taxon" v="Acer campestre" /><tag k="circumference" v="6.7" /></node><node id="-44" lat="46.187263888888886" lon="12.472236111111112" version="1"><tag k="natural" v="tree" /><tag k="ele" v="1100" /><tag k="taxon:it" v="Tasso" /><tag k="leaf_cycle" v="evergreen" /><tag k="leaf_type" v="broadleaved" /><tag k="height" v="15" /><tag k="ref" v="01/A640/PN/06" /><tag k="taxon" v="Taxus baccata" /><tag k="circumference" v="4.24" /></node><node id="-45" lat="45.967216666666666" lon="12.4309" version="1"><tag k="natural" v="tree" /><tag k="ele" v="66" /><tag k="taxon:it" v="Bagolaro" /><tag k="leaf_cycle" v="evergreen" /><tag k="leaf_type" v="broadleaved" /><tag k="height" v="28" /><tag k="ref" v="01/B598/PN/06" /><tag k="taxon" v="Celtis australis" /><tag k="circumference" v="4.5" /></node><node id="-46" lat="45.96851388888889" lon="12.448008333333334" version="1"><tag k="natural" v="tree" /><tag k="ele" v="49" /><tag k="taxon:it" v="Tiglio selvatico" /><tag k="leaf_cycle" v="deciduous" /><tag k="leaf_type" v="broadleaved" /><tag k="height" v="19" /><tag k="ref" v="02/B598/PN/06" /><tag k="historic" v="yes" /><tag k="taxon" v="Tilia cordata" /><tag k="circumference" v="2.82" /></node><node id="-47" lat="45.94096111111111" lon="13.623202777777779" version="1"><tag k="natural" v="tree" /><tag k="ele" v="85" /><tag k="taxon:it" v="Platano comune" /><tag k="leaf_cycle" v="deciduous" /><tag k="leaf_type" v="broadleaved" /><tag k="height" v="30" /><tag k="ref" v="01/E098/GO/06" /><tag k="taxon" v="Platanus acerifolia" /><tag k="circumference" v="4.5" /></node><node id="-48" lat="46.001577777777776" lon="12.430958333333333" version="1"><tag k="natural" v="tree" /><tag k="ele" v="760" /><tag k="taxon:it" v="Castagno" /><tag k="leaf_cycle" v="deciduous" /><tag k="leaf_type" v="broadleaved" /><tag k="height" v="12" /><tag k="ref" v="03/B598/PN/06" /><tag k="taxon" v="Castanea sativa" /><tag k="circumference" v="4.3" /></node><node id="-49" lat="46.248441666666665" lon="12.554947222222223" version="1"><tag k="natural" v="tree" /><tag k="ele" v="1530" /><tag k="taxon:it" v="Abete rosso" /><tag k="leaf_cycle" v="evergreen" /><tag k="leaf_type" v="needleleaved" /><tag k="height" v="22" /><tag k="ref" v="01/C790/PN/06" /><tag k="taxon" v="Picea abies" /><tag k="circumference" v="3.86" /></node><node id="-50" lat="46.24828333333333" lon="12.555672222222222" version="1"><tag k="natural" v="tree" /><tag k="ele" v="1540" /><tag k="taxon:it" v="Abete rosso" /><tag k="leaf_cycle" v="evergreen" /><tag k="leaf_type" v="needleleaved" /><tag k="height" v="22" /><tag k="ref" v="02/C790/PN/06" /><tag k="taxon" v="Picea abies" /><tag k="circumference" v="4.52" /></node><node id="-51" lat="46.33217500000001" lon="12.627575" version="1"><tag k="natural" v="tree" /><tag k="ele" v="1300" /><tag k="taxon:it" v="Abete rosso" /><tag k="leaf_cycle" v="evergreen" /><tag k="leaf_type" v="needleleaved" /><tag k="height" v="33" /><tag k="ref" v="03/C790/PN/06" /><tag k="taxon" v="Picea abies" /><tag k="circumference" v="4.02" /></node><node id="-52" lat="46.33226944444445" lon="12.627916666666668" version="1"><tag k="natural" v="tree" /><tag k="ele" v="1320" /><tag k="taxon:it" v="Abete rosso" /><tag k="leaf_cycle" v="evergreen" /><tag k="leaf_type" v="needleleaved" /><tag k="height" v="27" /><tag k="ref" v="04/C790/PN/06" /><tag k="taxon" v="Picea abies" /><tag k="circumference" v="4.42" /></node><node id="-53" lat="46.33430833333333" lon="12.622616666666667" version="1"><tag k="natural" v="tree" /><tag k="ele" v="1290" /><tag k="taxon:it" v="Faggio" /><tag k="leaf_cycle" v="deciduous" /><tag k="leaf_type" v="broadleaved" /><tag k="height" v="29" /><tag k="ref" v="05/C790/PN/06" /><tag k="taxon" v="Fagus sylvatica" /><tag k="circumference" v="4.05" /></node><node id="-54" lat="45.92112222222222" lon="12.674249999999999" version="1"><tag k="natural" v="tree" /><tag k="ele" v="20" /><tag k="taxon:it" v="Farnia" /><tag k="leaf_cycle" v="deciduous" /><tag k="leaf_type" v="broadleaved" /><tag k="height" v="25" /><tag k="ref" v="01/D621/PN/06" /><tag k="taxon" v="Quercus robur" /><tag k="circumference" v="5.45" /></node><node id="-55" lat="46.172916666666666" lon="12.700991666666665" version="1"><tag k="natural" v="tree" /><tag k="ele" v="341" /><tag k="taxon:it" v="Faggio" /><tag k="leaf_cycle" v="deciduous" /><tag k="leaf_type" v="broadleaved" /><tag k="height" v="35" /><tag k="ref" v="01/E889/PN/06" /><tag k="taxon" v="Fagus sylvatica" /><tag k="circumference" v="4.45" /></node><node id="-56" lat="46.1691" lon="12.706430555555555" version="1"><tag k="natural" v="tree" /><tag k="ele" v="287" /><tag k="taxon:it" v="Tuia gigante" /><tag k="leaf_cycle" v="evergreen" /><tag k="leaf_type" v="needleleaved" /><tag k="height" v="22" /><tag k="ref" v="02/E889/PN/06" /><tag k="taxon" v="Thuja plicata" /><tag k="circumference" v="4.35" /></node><node id="-57" lat="45.959250000000004" lon="12.615808333333334" version="1"><tag k="natural" v="tree" /><tag k="ele" v="30" /><tag k="taxon:it" v="Albero dei tulipani" /><tag k="leaf_cycle" v="deciduous" /><tag k="leaf_type" v="broadleaved" /><tag k="height" v="32" /><tag k="ref" v="01/G886/PN/06" /><tag k="taxon" v="Liriodendron tulipifera" /><tag k="circumference" v="4.55" /></node><node id="-58" lat="45.94689444444444" lon="13.630366666666667" version="1"><tag k="natural" v="tree" /><tag k="denotation" v="natural_monument" /><tag k="ele" v="100" /><tag k="taxon:it" v="Castagno" /><tag k="areal" v="yes" /><tag k="height" v="22" /><tag k="ref" v="02/E098/GO/06" /><tag k="taxon" v="Castanea sativa" /><tag k="circumference" v="4.5" /></node><node id="-59" lat="45.95708611111112" lon="12.617894444444445" version="1"><tag k="natural" v="tree" /><tag k="ele" v="25" /><tag k="taxon:it" v="Bagolaro" /><tag k="leaf_cycle" v="evergreen" /><tag k="leaf_type" v="broadleaved" /><tag k="height" v="22" /><tag k="ref" v="02/G886/PN/06" /><tag k="taxon" v="Celtis australis" /><tag k="circumference" v="4.5" /></node><node id="-60" lat="45.958394444444444" lon="12.616297222222222" version="1"><tag k="natural" v="tree" /><tag k="ele" v="25" /><tag k="taxon:it" v="Magnolia" /><tag k="leaf_cycle" v="deciduous" /><tag k="leaf_type" v="broadleaved" /><tag k="height" v="15" /><tag k="ref" v="03/G886/PN/06" /><tag k="taxon" v="Magnolia grandiflora" /><tag k="circumference" v="2.45" /></node><node id="-61" lat="46.16363611111111" lon="12.869358333333334" version="1"><tag k="natural" v="tree" /><tag k="ele" v="190" /><tag k="taxon:it" v="Farnia" /><tag k="leaf_cycle" v="deciduous" /><tag k="leaf_type" v="broadleaved" /><tag k="height" v="21" /><tag k="ref" v="01/I621/PN/06" /><tag k="historic" v="yes" /><tag k="taxon" v="Quercus robur" /><tag k="circumference" v="3.61" /></node><node id="-62" lat="45.770938888888885" lon="13.624411111111112" version="1"><tag k="natural" v="tree" /><tag k="ele" v="60" /><tag k="taxon:it" v="Terebinto" /><tag k="leaf_cycle" v="evergreen" /><tag k="leaf_type" v="broadleaved" /><tag k="height" v="7" /><tag k="ref" v="01/D383/TS/06" /><tag k="taxon" v="Pistacia terebinthus" /><tag k="circumference" v="0.92" /></node><node id="-63" lat="45.77149166666666" lon="13.629644444444445" version="1"><tag k="natural" v="tree" /><tag k="ele" v="40" /><tag k="taxon:it" v="Cipresso di Monterey" /><tag k="leaf_cycle" v="deciduous" /><tag k="leaf_type" v="broadleaved" /><tag k="height" v="28" /><tag k="ref" v="02/D383/TS/06" /><tag k="taxon" v="Cupressus macrocarpa" /><tag k="circumference" v="3.2" /></node><node id="-64" lat="45.594794444444446" lon="13.766977777777779" version="1"><tag k="natural" v="tree" /><tag k="ele" v="50" /><tag k="taxon:it" v="Salice bianco" /><tag k="leaf_cycle" v="deciduous" /><tag k="leaf_type" v="broadleaved" /><tag k="height" v="17" /><tag k="ref" v="01/F795/TS/06" /><tag k="taxon" v="Salix alba" /><tag k="circumference" v="4.1" /></node><node id="-65" lat="45.704994444444445" lon="13.713161111111111" version="1"><tag k="natural" v="tree" /><tag k="ele" v="10" /><tag k="taxon:it" v="Corbezzolo" /><tag k="leaf_cycle" v="evergreen" /><tag k="leaf_type" v="broadleaved" /><tag k="height" v="12" /><tag k="ref" v="01/L424/TS/06" /><tag k="taxon" v="Arbutus unedo" /><tag k="circumference" v="2.04" /></node><node id="-66" lat="45.70379444444445" lon="13.712880555555556" version="1"><tag k="natural" v="tree" /><tag k="ele" v="5" /><tag k="taxon:it" v="Leccio" /><tag k="leaf_cycle" v="deciduous" /><tag k="leaf_type" v="broadleaved" /><tag k="height" v="28" /><tag k="ref" v="02/L424/TS/06" /><tag k="taxon" v="Quercus ilex" /><tag k="circumference" v="267-250-230" /></node><node id="-67" lat="45.71527777777778" lon="13.705047222222221" version="1"><tag k="natural" v="tree" /><tag k="ele" v="10" /><tag k="taxon:it" v="Cipresso comune" /><tag k="leaf_cycle" v="deciduous" /><tag k="leaf_type" v="broadleaved" /><tag k="height" v="18" /><tag k="ref" v="03/L424/TS/06" /><tag k="taxon" v="Cupressus sempervirens" /><tag k="circumference" v="4.1" /></node><node id="-68" lat="45.70576944444445" lon="13.803552777777778" version="1"><tag k="natural" v="tree" /><tag k="ele" v="300" /><tag k="taxon:it" v="Cerro" /><tag k="leaf_cycle" v="deciduous" /><tag k="leaf_type" v="broadleaved" /><tag k="height" v="35" /><tag k="ref" v="04/L424/TS/06" /><tag k="taxon" v="Quercus cerris" /><tag k="circumference" v="3.1" /></node><node id="-69" lat="45.944513888888885" lon="13.628080555555556" version="1"><tag k="natural" v="tree" /><tag k="ele" v="120" /><tag k="taxon:it" v="Platano comune" /><tag k="leaf_cycle" v="deciduous" /><tag k="leaf_type" v="broadleaved" /><tag k="height" v="30" /><tag k="ref" v="03/E098/GO/06" /><tag k="taxon" v="Platanus acerifolia" /><tag k="circumference" v="4.55" /></node><node id="-70" lat="45.6441" lon="13.815258333333334" version="1"><tag k="natural" v="tree" /><tag k="ele" v="200" /><tag k="taxon:it" v="Pino d'Aleppo" /><tag k="leaf_cycle" v="evergreen" /><tag k="leaf_type" v="broadleaved" /><tag k="height" v="18" /><tag k="ref" v="05/L424/TS/06" /><tag k="taxon" v="Pinus halepensis" /><tag k="circumference" v="3.6" /></node><node id="-71" lat="45.70353333333333" lon="13.71641111111111" version="1"><tag k="natural" v="tree" /><tag k="ele" v="10" /><tag k="taxon:it" v="Pino grigio" /><tag k="leaf_cycle" v="evergreen" /><tag k="leaf_type" v="broadleaved" /><tag k="height" v="20" /><tag k="ref" v="06/L424/TS/06" /><tag k="taxon" v="Pinus sabiniana" /><tag k="circumference" v="2.5" /></node><node id="-72" lat="45.653925" lon="13.784094444444444" version="1"><tag k="natural" v="tree" /><tag k="ele" v="15" /><tag k="taxon:it" v="Platano comune" /><tag k="leaf_cycle" v="deciduous" /><tag k="leaf_type" v="broadleaved" /><tag k="height" v="28" /><tag k="ref" v="07/L424/TS/06" /><tag k="taxon" v="Platanus acerifolia" /><tag k="circumference" v="5.2" /></node><node id="-73" lat="45.65405" lon="13.784372222222222" version="1"><tag k="natural" v="tree" /><tag k="ele" v="15" /><tag k="taxon:it" v="Platano comune" /><tag k="leaf_cycle" v="deciduous" /><tag k="leaf_type" v="broadleaved" /><tag k="height" v="31" /><tag k="ref" v="08/L424/TS/06" /><tag k="taxon" v="Platanus acerifolia" /><tag k="circumference" v="5.25" /></node><node id="-74" lat="45.660894444444445" lon="13.796788888888889" version="1"><tag k="natural" v="tree" /><tag k="ele" v="120" /><tag k="taxon:it" v="Roverella" /><tag k="leaf_cycle" v="deciduous" /><tag k="leaf_type" v="broadleaved" /><tag k="height" v="28" /><tag k="ref" v="09/L424/TS/06" /><tag k="taxon" v="Quercus pubescens" /><tag k="circumference" v="4.1" /></node><node id="-75" lat="45.65308888888889" lon="13.805216666666668" version="1"><tag k="natural" v="tree" /><tag k="ele" v="90" /><tag k="taxon:it" v="Roverella" /><tag k="leaf_cycle" v="deciduous" /><tag k="leaf_type" v="broadleaved" /><tag k="height" v="15" /><tag k="ref" v="10/L424/TS/06" /><tag k="taxon" v="Quercus pubescens" /><tag k="circumference" v="4.2" /></node><node id="-76" lat="45.704097222222224" lon="13.713608333333333" version="1"><tag k="natural" v="tree" /><tag k="ele" v="10" /><tag k="taxon:it" v="Sequoia sempreverde" /><tag k="leaf_cycle" v="deciduous" /><tag k="leaf_type" v="needleleaved" /><tag k="height" v="30" /><tag k="ref" v="11/L424/TS/06" /><tag k="taxon" v="Sequoia sempervirens" /><tag k="circumference" v="4.25" /></node><node id="-77" lat="45.63704722222222" lon="13.80185" version="1"><tag k="natural" v="tree" /><tag k="ele" v="105" /><tag k="taxon:it" v="Olmo del Caucaso" /><tag k="leaf_cycle" v="deciduous" /><tag k="leaf_type" v="broadleaved" /><tag k="height" v="20" /><tag k="ref" v="12/L424/TS/06" /><tag k="taxon" v="Zelkova carpinifolia" /><tag k="circumference" v="3.43" /></node><node id="-78" lat="45.61075" lon="13.872322222222223" version="1"><tag k="natural" v="tree" /><tag k="ele" v="440" /><tag k="taxon:it" v="Cerro" /><tag k="areal" v="yes" /><tag k="height" v="20" /><tag k="ref" v="13/L424/TS/06" /><tag k="taxon" v="Quercus cerris" /><tag k="circumference" v="3.6" /></node><node id="-79" lat="45.93805277777778" lon="13.626622222222222" version="1"><tag k="natural" v="tree" /><tag k="ele" v="80" /><tag k="taxon:it" v="Gelso bianco" /><tag k="leaf_cycle" v="deciduous" /><tag k="leaf_type" v="broadleaved" /><tag k="height" v="8" /><tag k="ref" v="04/E098/GO/06" /><tag k="taxon" v="Morus alba" /><tag k="circumference" v="2.8" /></node><node id="-80" lat="45.687266666666666" lon="13.786727777777777" version="1"><tag k="natural" v="tree" /><tag k="ele" v="325" /><tag k="taxon:it" v="Sofora del Giappone" /><tag k="height" v="15" /><tag k="ref" v="15/L424/TS/06" /><tag k="taxon" v="Sthyphnolobium japonicum" /><tag k="circumference" v="3.03" /></node><node id="-81" lat="46.47431944444445" lon="12.776833333333334" version="1"><tag k="natural" v="tree" /><tag k="ele" v="1623" /><tag k="taxon:it" v="Larice" /><tag k="leaf_cycle" v="deciduous" /><tag k="leaf_type" v="needleleaved" /><tag k="height" v="27" /><tag k="ref" v="01/A267/UD/06" /><tag k="taxon" v="Larix decidua" /><tag k="circumference" v="4.94" /></node><node id="-82" lat="46.19074722222222" lon="13.306236111111112" version="1"><tag k="natural" v="tree" /><tag k="ele" v="193" /><tag k="taxon:it" v="Tuia gigante" /><tag k="leaf_cycle" v="evergreen" /><tag k="leaf_type" v="needleleaved" /><tag k="height" v="35" /><tag k="ref" v="01/A491/UD/06" /><tag k="taxon" v="Thuja plicata" /><tag k="circumference" v="5.4" /></node><node id="-83" lat="46.188541666666666" lon="13.305475000000001" version="1"><tag k="natural" v="tree" /><tag k="ele" v="190" /><tag k="taxon:it" v="Platano comune" /><tag k="leaf_cycle" v="deciduous" /><tag k="leaf_type" v="broadleaved" /><tag k="height" v="21.5" /><tag k="ref" v="03/A491/UD/06" /><tag k="taxon" v="Platanus acerifolia" /><tag k="circumference" v="4.7" /></node><node id="-84" lat="46.19144444444444" lon="13.304102777777778" version="1"><tag k="natural" v="tree" /><tag k="denotation" v="natural_monument" /><tag k="ele" v="225" /><tag k="taxon:it" v="Farnia" /><tag k="leaf_cycle" v="deciduous" /><tag k="leaf_type" v="broadleaved" /><tag k="height" v="31" /><tag k="ref" v="04/A491/UD/06" /><tag k="historic" v="yes" /><tag k="taxon" v="Quercus robur" /><tag k="circumference" v="6.6" /></node><node id="-85" lat="45.99531944444445" lon="13.076711111111111" version="1"><tag k="natural" v="tree" /><tag k="ele" v="60" /><tag k="taxon:it" v="Bagolaro" /><tag k="leaf_cycle" v="evergreen" /><tag k="leaf_type" v="broadleaved" /><tag k="height" v="18" /><tag k="ref" v="01/A700/UD/06" /><tag k="taxon" v="Celtis australis" /><tag k="circumference" v="4" /></node><node id="-86" lat="46.01228888888889" lon="13.068444444444443" version="1"><tag k="natural" v="tree" /><tag k="ele" v="70" /><tag k="taxon:it" v="Sofora del Giappone" /><tag k="leaf_cycle" v="deciduous" /><tag k="leaf_type" v="broadleaved" /><tag k="height" v="18" /><tag k="ref" v="02/A700/UD/06" /><tag k="taxon" v="Styphnolobium japonicum" /><tag k="circumference" v="3.78" /></node><node id="-87" lat="45.99563611111111" lon="13.081480555555554" version="1"><tag k="natural" v="tree" /><tag k="ele" v="60" /><tag k="taxon:it" v="Gelso nero" /><tag k="leaf_cycle" v="deciduous" /><tag k="leaf_type" v="broadleaved" /><tag k="height" v="8" /><tag k="ref" v="03/A700/UD/06" /><tag k="taxon" v="Morus nigra" /><tag k="circumference" v="3.38" /></node><node id="-88" lat="46.007375" lon="13.149058333333333" version="1"><tag k="natural" v="tree" /><tag k="ele" v="81" /><tag k="taxon:it" v="Tiglio selvatico" /><tag k="areal" v="yes" /><tag k="historic" v="yes" /><tag k="height" v="24" /><tag k="ref" v="04/A700/UD/06" /><tag k="taxon" v="Tilia cordata" /><tag k="circumference" v="2.45" /></node><node id="-89" lat="46.09491944444445" lon="13.42888611111111" version="1"><tag k="natural" v="tree" /><tag k="ele" v="130" /><tag k="taxon:it" v="Ginco" /><tag k="leaf_cycle" v="deciduous" /><tag k="leaf_type" v="broadleaved" /><tag k="height" v="25" /><tag k="ref" v="02/C758/UD/06" /><tag k="taxon" v="Ginkgo biloba" /><tag k="circumference" v="3.5" /></node><node id="-90" lat="46.08975277777778" lon="13.451441666666666" version="1"><tag k="natural" v="tree" /><tag k="ele" v="140" /><tag k="taxon:it" v="Gelso nero" /><tag k="leaf_cycle" v="deciduous" /><tag k="leaf_type" v="broadleaved" /><tag k="height" v="5.5" /><tag k="ref" v="05/C758/UD/06" /><tag k="taxon" v="Morus nigra" /><tag k="circumference" v="2.4" /></node><node id="-91" lat="46.10261666666667" lon="13.442544444444446" version="1"><tag k="natural" v="tree" /><tag k="ele" v="140" /><tag k="taxon:it" v="Vite" /><tag k="height" v="2.5" /><tag k="ref" v="06/C758/UD/06" /><tag k="taxon" v="Vitis vinifera" /><tag k="circumference" v="0.68" /></node><node id="-92" lat="45.95044444444445" lon="13.008244444444445" version="1"><tag k="natural" v="tree" /><tag k="ele" v="35" /><tag k="taxon:it" v="Bagolaro" /><tag k="leaf_cycle" v="evergreen" /><tag k="leaf_type" v="broadleaved" /><tag k="height" v="21" /><tag k="ref" v="01/C817/UD/06" /><tag k="taxon" v="Celtis australis" /><tag k="circumference" v="4.56" /></node><node id="-93" lat="45.949755555555555" lon="13.009377777777777" version="1"><tag k="natural" v="tree" /><tag k="ele" v="35" /><tag k="taxon:it" v="Cedro dell'Himalaya" /><tag k="leaf_cycle" v="evergreen" /><tag k="leaf_type" v="needleleaved" /><tag k="height" v="21" /><tag k="ref" v="02/C817/UD/06" /><tag k="taxon" v="Cedrus deodara" /><tag k="circumference" v="4.75" /></node><node id="-94" lat="45.95011111111111" lon="13.012477777777777" version="1"><tag k="natural" v="tree" /><tag k="ele" v="35" /><tag k="taxon:it" v="Magnolia" /><tag k="leaf_cycle" v="deciduous" /><tag k="leaf_type" v="broadleaved" /><tag k="height" v="15" /><tag k="ref" v="03/C817/UD/06" /><tag k="taxon" v="Magnolia grandiflora" /><tag k="circumference" v="1.9" /></node><node id="-95" lat="45.94939722222222" lon="13.008569444444445" version="1"><tag k="natural" v="tree" /><tag k="ele" v="35" /><tag k="taxon:it" v="Paulonia" /><tag k="leaf_cycle" v="deciduous" /><tag k="leaf_type" v="broadleaved" /><tag k="height" v="19" /><tag k="ref" v="04/C817/UD/06" /><tag k="taxon" v="Paulownia tomentosa" /><tag k="circumference" v="4.2" /></node><node id="-96" lat="45.940302777777774" lon="13.593808333333333" version="1"><tag k="natural" v="tree" /><tag k="ele" v="60" /><tag k="taxon:it" v="Paulonia" /><tag k="areal" v="yes" /><tag k="historic" v="yes" /><tag k="height" v="5" /><tag k="ref" v="06/E098/GO/06" /><tag k="taxon" v="Paulownia tomentosa" /><tag k="circumference" v="3.7" /></node><node id="-97" lat="45.949861111111105" lon="13.012688888888889" version="1"><tag k="natural" v="tree" /><tag k="ele" v="35" /><tag k="taxon:it" v="Spino di Giuda" /><tag k="height" v="20" /><tag k="ref" v="07/C817/UD/06" /><tag k="taxon" v="Gleditzia triacanthos" /><tag k="circumference" v="2.9" /></node><node id="-98" lat="45.94945277777777" lon="13.011877777777778" version="1"><tag k="natural" v="tree" /><tag k="ele" v="35" /><tag k="taxon:it" v="Tasso" /><tag k="leaf_cycle" v="evergreen" /><tag k="leaf_type" v="broadleaved" /><tag k="height" v="16" /><tag k="ref" v="08/C817/UD/06" /><tag k="taxon" v="Taxus baccata" /><tag k="circumference" v="4.1" /></node><node id="-99" lat="45.94869722222222" lon="13.009602777777777" version="1"><tag k="natural" v="tree" /><tag k="ele" v="35" /><tag k="taxon:it" v="Ippocastano" /><tag k="leaf_cycle" v="deciduous" /><tag k="leaf_type" v="broadleaved" /><tag k="height" v="22" /><tag k="ref" v="10/C817/UD/06" /><tag k="taxon" v="Aesculus hippocastanum" /><tag k="circumference" v="4.09" /></node><node id="-100" lat="45.952847222222225" lon="13.009130555555556" version="1"><tag k="natural" v="tree" /><tag k="ele" v="35" /><tag k="taxon:it" v="Cedro dell'Himalaya" /><tag k="leaf_cycle" v="evergreen" /><tag k="leaf_type" v="needleleaved" /><tag k="height" v="21" /><tag k="ref" v="11/C817/UD/06" /><tag k="taxon" v="Cedrus deodara" /><tag k="circumference" v="4.95" /></node><node id="-101" lat="46.43916944444444" lon="12.832097222222222" version="1"><tag k="natural" v="tree" /><tag k="ele" v="953" /><tag k="taxon:it" v="Faggio" /><tag k="leaf_cycle" v="deciduous" /><tag k="leaf_type" v="broadleaved" /><tag k="height" v="17" /><tag k="ref" v="01/D408/UD/06" /><tag k="taxon" v="Fagus sylvatica" /><tag k="circumference" v="3.45" /></node><node id="-102" lat="45.682125" lon="13.133875" version="1"><tag k="natural" v="tree" /><tag k="ele" v="1" /><tag k="taxon:it" v="Pino d'Aleppo" /><tag k="leaf_cycle" v="evergreen" /><tag k="leaf_type" v="broadleaved" /><tag k="height" v="15" /><tag k="ref" v="01/E584/UD/06" /><tag k="taxon" v="Pinus halepensis" /><tag k="circumference" v="2.13" /></node><node id="-103" lat="45.69185833333333" lon="13.13968888888889" version="1"><tag k="natural" v="tree" /><tag k="ele" v="1" /><tag k="taxon:it" v="Roverella" /><tag k="leaf_cycle" v="deciduous" /><tag k="leaf_type" v="broadleaved" /><tag k="height" v="10" /><tag k="ref" v="02/E584/UD/06" /><tag k="taxon" v="Quercus pubescens" /><tag k="circumference" v="2.5" /></node><node id="-104" lat="45.95030833333334" lon="13.62633888888889" version="1"><tag k="natural" v="tree" /><tag k="ele" v="83" /><tag k="taxon:it" v="Gelso bianco" /><tag k="leaf_cycle" v="deciduous" /><tag k="leaf_type" v="broadleaved" /><tag k="height" v="8" /><tag k="ref" v="07/E098/GO/06" /><tag k="taxon" v="Morus alba" /><tag k="circumference" v="2.8" /></node><node id="-105" lat="46.1232" lon="13.159766666666666" version="1"><tag k="natural" v="tree" /><tag k="ele" v="212" /><tag k="taxon:it" v="Ginco" /><tag k="leaf_cycle" v="deciduous" /><tag k="leaf_type" v="broadleaved" /><tag k="height" v="27" /><tag k="ref" v="01/F760/UD/06" /><tag k="taxon" v="Ginkgo biloba" /><tag k="circumference" v="4.1" /></node><node id="-106" lat="46.12339722222222" lon="13.159786111111112" version="1"><tag k="natural" v="tree" /><tag k="ele" v="213" /><tag k="taxon:it" v="Noce nero" /><tag k="leaf_cycle" v="deciduous" /><tag k="leaf_type" v="broadleaved" /><tag k="height" v="25" /><tag k="ref" v="02/F760/UD/06" /><tag k="taxon" v="Juglans nigra" /><tag k="circumference" v="3.6" /></node><node id="-107" lat="46.12286388888889" lon="13.159247222222223" version="1"><tag k="natural" v="tree" /><tag k="ele" v="213" /><tag k="taxon:it" v="Ippocastano" /><tag k="leaf_cycle" v="deciduous" /><tag k="leaf_type" v="broadleaved" /><tag k="height" v="26" /><tag k="ref" v="03/F760/UD/06" /><tag k="taxon" v="Aesculus hippocastanum" /><tag k="circumference" v="3.7" /></node><node id="-108" lat="46.586600000000004" lon="12.000625" version="1"><tag k="natural" v="tree" /><tag k="ele" v="900" /><tag k="taxon:it" v="Faggio" /><tag k="areal" v="yes" /><tag k="historic" v="yes" /><tag k="height" v="25" /><tag k="ref" v="01/G300/UD/06" /><tag k="taxon" v="Fagus sylvatica" /><tag k="circumference" v="4.5" /></node><node id="-109" lat="46.564836111111106" lon="13.116736111111111" version="1"><tag k="natural" v="tree" /><tag k="ele" v="1148" /><tag k="taxon:it" v="Abete bianco" /><tag k="leaf_cycle" v="evergreen" /><tag k="leaf_type" v="needleleaved" /><tag k="height" v="35" /><tag k="ref" v="01/G381/UD/06" /><tag k="taxon" v="Abies alba" /><tag k="circumference" v="3.8" /></node><node id="-110" lat="46.570527777777784" lon="13.11075" version="1"><tag k="natural" v="tree" /><tag k="ele" v="993" /><tag k="taxon:it" v="Abete rosso" /><tag k="leaf_cycle" v="evergreen" /><tag k="leaf_type" v="needleleaved" /><tag k="height" v="49" /><tag k="ref" v="02/G381/UD/06" /><tag k="taxon" v="Picea abies" /><tag k="circumference" v="3.65" /></node><node id="-111" lat="46.511355555555554" lon="13.305991666666667" version="1"><tag k="natural" v="tree" /><tag k="ele" v="650" /><tag k="taxon:it" v="Tiglio selvatico" /><tag k="leaf_cycle" v="deciduous" /><tag k="leaf_type" v="broadleaved" /><tag k="height" v="25" /><tag k="ref" v="01/G831/UD/06" /><tag k="taxon" v="Tilia cordata" /><tag k="circumference" v="3.9" /></node><node id="-112" lat="46.510325" lon="13.313933333333335" version="1"><tag k="natural" v="tree" /><tag k="ele" v="647" /><tag k="taxon:it" v="Pero domestico" /><tag k="leaf_cycle" v="deciduous" /><tag k="leaf_type" v="broadleaved" /><tag k="height" v="18" /><tag k="ref" v="02/G831/UD/06" /><tag k="taxon" v="Pyrus communis" /><tag k="circumference" v="2.48" /></node><node id="-113" lat="46.50619722222222" lon="13.302502777777779" version="1"><tag k="natural" v="tree" /><tag k="ele" v="630" /><tag k="taxon:it" v="Noce comune" /><tag k="leaf_cycle" v="deciduous" /><tag k="leaf_type" v="broadleaved" /><tag k="height" v="18" /><tag k="ref" v="03/G831/UD/06" /><tag k="taxon" v="Juglans regia" /><tag k="circumference" v="2.92" /></node><node id="-114" lat="46.02371111111111" lon="13.429008333333332" version="1"><tag k="natural" v="tree" /><tag k="ele" v="150" /><tag k="taxon:it" v="Cipresso comune" /><tag k="leaf_cycle" v="deciduous" /><tag k="leaf_type" v="broadleaved" /><tag k="height" v="20.5" /><tag k="ref" v="01/H029/UD/06" /><tag k="taxon" v="Cupressus sempervirens" /><tag k="circumference" v="5.3" /></node><node id="-115" lat="45.885105555555555" lon="13.493991666666666" version="1"><tag k="natural" v="tree" /><tag k="ele" v="30" /><tag k="taxon:it" v="Magnolia" /><tag k="leaf_cycle" v="deciduous" /><tag k="leaf_type" v="broadleaved" /><tag k="height" v="16" /><tag k="ref" v="01/E124/GO/06" /><tag k="taxon" v="Magnolia grandiflora" /><tag k="circumference" v="3.65" /></node><node id="-116" lat="46.0238" lon="13.429488888888889" version="1"><tag k="natural" v="tree" /><tag k="ele" v="150" /><tag k="taxon:it" v="Glicine" /><tag k="height" v="4.5" /><tag k="ref" v="03/H029/UD/06" /><tag k="taxon" v="Wisteria sinensis" /><tag k="circumference" v="1.8" /></node><node id="-117" lat="46.024475" lon="13.42933611111111" version="1"><tag k="natural" v="tree" /><tag k="ele" v="150" /><tag k="taxon:it" v="Tuia gigante" /><tag k="leaf_cycle" v="evergreen" /><tag k="leaf_type" v="needleleaved" /><tag k="height" v="15" /><tag k="ref" v="04/H029/UD/06" /><tag k="taxon" v="Thuja plicata" /><tag k="circumference" v="3.3" /></node><node id="-118" lat="46.17304444444444" lon="13.459538888888888" version="1"><tag k="natural" v="tree" /><tag k="ele" v="620" /><tag k="taxon:it" v="Castagno" /><tag k="leaf_cycle" v="deciduous" /><tag k="leaf_type" v="broadleaved" /><tag k="height" v="19" /><tag k="ref" v="01/H089/UD/06" /><tag k="historic" v="yes" /><tag k="taxon" v="Castanea sativa" /><tag k="circumference" v="7.83" /></node><node id="-119" lat="46.16818611111111" lon="13.464316666666665" version="1"><tag k="natural" v="tree" /><tag k="ele" v="540" /><tag k="taxon:it" v="Castagno" /><tag k="leaf_cycle" v="deciduous" /><tag k="leaf_type" v="broadleaved" /><tag k="height" v="24" /><tag k="ref" v="02/H089/UD/06" /><tag k="taxon" v="Castanea sativa" /><tag k="circumference" v="5.2" /></node><node id="-120" lat="46.44835833333333" lon="12.826841666666667" version="1"><tag k="natural" v="tree" /><tag k="ele" v="1004" /><tag k="taxon:it" v="Pero selvatico" /><tag k="leaf_cycle" v="deciduous" /><tag k="leaf_type" v="broadleaved" /><tag k="height" v="15" /><tag k="ref" v="01/H200/UD/06" /><tag k="taxon" v="Pyrus pyraster" /><tag k="circumference" v="2.54" /></node><node id="-121" lat="46.10178611111111" lon="13.548919444444444" version="1"><tag k="natural" v="tree" /><tag k="ele" v="580" /><tag k="taxon:it" v="Betulla verrucosa" /><tag k="leaf_cycle" v="deciduous" /><tag k="leaf_type" v="broadleaved" /><tag k="height" v="23" /><tag k="ref" v="01/H951/UD/06" /><tag k="taxon" v="Betula pendula" /><tag k="circumference" v="2.35" /></node><node id="-122" lat="46.1472" lon="13.532219444444445" version="1"><tag k="natural" v="tree" /><tag k="ele" v="530" /><tag k="taxon:it" v="Castagno" /><tag k="leaf_cycle" v="deciduous" /><tag k="leaf_type" v="broadleaved" /><tag k="height" v="24" /><tag k="ref" v="02/H951/UD/06" /><tag k="taxon" v="Castanea sativa" /><tag k="circumference" v="5.6" /></node><node id="-123" lat="46.19378888888888" lon="13.531055555555556" version="1"><tag k="natural" v="tree" /><tag k="ele" v="920" /><tag k="taxon:it" v="Faggio" /><tag k="leaf_cycle" v="deciduous" /><tag k="leaf_type" v="broadleaved" /><tag k="height" v="29" /><tag k="ref" v="01/I479/UD/06" /><tag k="taxon" v="Fagus sylvatica" /><tag k="circumference" v="4.2" /></node><node id="-124" lat="45.92173888888889" lon="13.13886111111111" version="1"><tag k="natural" v="tree" /><tag k="ele" v="30" /><tag k="taxon:it" v="Cedro dell'Himalaya" /><tag k="leaf_cycle" v="evergreen" /><tag k="leaf_type" v="needleleaved" /><tag k="height" v="28" /><tag k="ref" v="01/L039/UD/06" /><tag k="taxon" v="Cedrus deodara" /><tag k="circumference" v="5.74" /></node></osm>