<?xml version='1.0' encoding='utf-8'?>
<osm generator="OSM Conflator 1.3.1" version="0.6"><changeset><tag k="source" v="RAFVG" /><tag k="created_by" v="OSM Conflator 1.3.1" /><tag k="type" v="import" /></changeset><node action="modify" id="3786017354" lat="46.0527029" lon="12.4931474" version="2"><tag k="denotation" v="landmark" /><tag k="source" v="Partecipazione" /><tag k="natural" v="tree" /><tag k="species:it" v="castagno" /><tag k="note" v="Castagno secolare" /><tag k="name" v="Castagno" /></node><node action="modify" id="5594894907" lat="46.0579996" lon="13.2461192" version="1"><tag k="survey:date" v="16-Sep-2016" /><tag k="denotation" v="natural_monument" /><tag k="circumference" v="3" /><tag k="source" v="Regione FVG" /><tag k="ref:mipaaft" v="028/L483/UD/06" /><tag k="height" v="20" /><tag k="natural" v="tree" /><tag k="species" v="Cupressus cashmeriana Royle ex Carri  re" /><tag k="name" v="Cipresso del Cashmere" /></node><node action="modify" id="2124618451" lat="45.6081093" lon="13.858512" version="2"><tag k="denotation" v="natural_monument" /><tag k="genus:it" v="tiglio" /><tag k="source" v="Regione FVG" /><tag k="genus:sl" v="lipa" /><tag k="species" v="Tilia cordata Mill." /><tag k="height" v="12" /><tag k="ref:mipaaft" v="014/L424/TS/06" /><tag k="survey:date" v="19-Nov-2016" /><tag k="start_date" v="1667" /><tag k="circumference" v="4.3" /><tag k="genus" v="Tilia" /><tag k="type" v="broad_leaved" /><tag k="name:botanical" v="Tilia" /><tag k="natural" v="tree" /><tag k="genus:de" v="Linde" /><tag k="name" v="Tiglio selvatico" /></node><node action="modify" id="5350079692" lat="45.8180965" lon="13.1291461" version="1"><tag k="denotation" v="landmark" /><tag k="source" v="Partecipazione" /><tag k="natural" v="tree" /><tag k="name" v="Pino marittimo" /></node><node action="modify" id="5543849268" lat="46.0625782" lon="13.2368094" version="1"><tag k="survey:date" v="19-Sep-2016" /><tag k="denotation" v="natural_monument" /><tag k="circumference" v="3" /><tag k="source" v="Regione FVG" /><tag k="ref:mipaaft" v="027/L483/UD/06" /><tag k="height" v="25" /><tag k="natural" v="tree" /><tag k="species" v="Cedrus libani A.Richard" /></node><node action="modify" id="4438216955" lat="46.0546246" lon="13.2464452" version="1"><tag k="survey:date" v="19-Sep-2016" /><tag k="denotation" v="natural_monument" /><tag k="circumference" v="5.15" /><tag k="source" v="Regione FVG" /><tag k="ref:mipaaft" v="023/L483/UD/06" /><tag k="height" v="32" /><tag k="natural" v="tree" /><tag k="species" v="Platanus acerifolia (Aiton) Willd." /><tag k="name" v="Platano comune" /></node><node action="modify" id="5774068563" lat="46.0710835" lon="13.2295167" version="1"><tag k="survey:date" v="19-Sep-2016" /><tag k="denotation" v="natural_monument" /><tag k="circumference" v="5.75" /><tag k="source" v="Regione FVG" /><tag k="ref:mipaaft" v="016/L483/UD/06" /><tag k="height" v="30" /><tag k="natural" v="tree" /><tag k="species" v="Cedrus deodara  (D.Don) G.Don" /><tag k="name" v="Cedro dell'Himalaya" /></node><node action="modify" id="4387472103" lat="46.0606704" lon="13.2290423" version="1"><tag k="survey:date" v="19-Sep-2016" /><tag k="denotation" v="natural_monument" /><tag k="circumference" v="4.2" /><tag k="source" v="Regione FVG" /><tag k="ref:mipaaft" v="004/L483/UD/06" /><tag k="height" v="24" /><tag k="natural" v="tree" /><tag k="species" v="Aesculus hippocastanum L." /><tag k="name" v="Ippocastano" /></node><node action="modify" id="2874024034" lat="46.0942322" lon="13.4273356" version="4"><tag k="denotation" v="natural_monument" /><tag k="source" v="Regione FVG" /><tag k="ref:mipaaft" v="001/C758/UD/06" /><tag k="height" v="25.5" /><tag k="species" v="Pinus nigra subsp. laricio Maire" /><tag k="survey:date" v="20-Jul-2015" /><tag k="start_date" v="1890" /><tag k="circumference" v="3.95" /><tag k="name:botanical" v="Pinus Nigra" /><tag k="type" v="broad_leaved" /><tag k="natural" v="tree" /><tag k="loc_name" v="Arnoldo" /><tag k="name" v="Pino laricio" /></node><node action="modify" id="5697339360" lat="46.506708" lon="13.438822" version="1"><tag k="denotation" v="natural_monument" /><tag k="source" v="Regione FVG" /><tag k="ref:mipaaft" v="001/E847/UD/06" /><tag k="ele" v="720" /><tag k="height" v="22" /><tag k="species" v="Tilia cordata Mill." /><tag k="species:it" v="Tiglio selvatico" /><tag k="survey:date" v="15-Oct-2016" /><tag k="start_date" v="1620" /><tag k="ref:mipaaf" v="01/E847/UD/06" /><tag k="circumference" v="6.33" /><tag k="natural" v="tree" /><tag k="name" v="Tiglio selvatico" /></node><node action="modify" id="4216081495" lat="46.024126" lon="13.4293653" version="3"><tag k="genus" v="Cupressus L." /><tag k="denotation" v="natural_monument" /><tag k="source" v="Regione FVG" /><tag k="leaf_cycle" v="evergreen" /><tag k="species" v="Cupressus sempervirens L." /><tag k="height" v="21" /><tag k="ref:mipaaft" v="002/H029/UD/06" /><tag k="survey:date" v="09-Jul-2015" /><tag k="start_date" v="1580" /><tag k="circumference" v="5" /><tag k="access" v="yes" /><tag k="leaf_type" v="needleleaved" /><tag k="name:botanical" v="Cupressus sempervirens L." /><tag k="natural" v="tree" /><tag k="name" v="Cipresso comune" /></node><node action="modify" id="2940135286" lat="45.9507014" lon="13.0116112" version="1"><tag k="survey:date" v="08-Feb-2016" /><tag k="denotation" v="natural_monument" /><tag k="source" v="Regione FVG" /><tag k="circumference" v="2.5" /><tag k="type" v="conifer" /><tag k="ref:mipaaft" v="006/C817/UD/06" /><tag k="height" v="57" /><tag k="natural" v="tree" /><tag k="species" v="Ginkgo biloba L." /><tag k="name" v="Ginco" /></node><node action="modify" id="2940135287" lat="45.9501489" lon="13.0087733" version="1"><tag k="survey:date" v="08-Feb-2016" /><tag k="denotation" v="natural_monument" /><tag k="source" v="Regione FVG" /><tag k="circumference" v="3.95" /><tag k="type" v="conifer" /><tag k="ref:mipaaft" v="005/C817/UD/06" /><tag k="height" v="32" /><tag k="natural" v="tree" /><tag k="species" v="Abies nordmanniana (Steven) Spach" /><tag k="name" v="Abete del Caucaso" /></node><node action="modify" id="3826604091" lat="46.1456114" lon="13.6007708" version="2"><tag k="denotation" v="landmark" /><tag k="name" v="Castagno" /><tag k="natural" v="tree" /><tag k="source" v="Partecipazione" /><tag k="type" v="broad_leaved" /></node><node action="modify" id="4874835156" lat="46.0877474" lon="13.1859847" version="1"><tag k="denotation" v="landmark" /><tag k="source" v="Partecipazione" /><tag k="natural" v="tree" /><tag k="name" v="Cedro del libano" /></node><node action="modify" id="5295657166" lat="45.9454345" lon="13.6210041" version="1"><tag k="survey:date" v="08-Aug-2015" /><tag k="denotation" v="natural_monument" /><tag k="source" v="Regione FVG" /><tag k="circumference" v="2.72" /><tag k="leaf_type" v="needleleaved" /><tag k="ref:mipaaft" v="005/E098/GO/06" /><tag k="height" v="18" /><tag k="natural" v="tree" /><tag k="species" v="Magnolia grandiflora L." /><tag k="name" v="Magnolia" /></node><node action="modify" id="2940135289" lat="45.9492938" lon="13.009209" version="1"><tag k="survey:date" v="05-Oct-2016" /><tag k="denotation" v="natural_monument" /><tag k="circumference" v="4.3" /><tag k="source" v="Regione FVG" /><tag k="ref:mipaaft" v="009/C817/UD/06" /><tag k="height" v="30" /><tag k="natural" v="tree" /><tag k="species" v="Platanus acerifolia (Aiton) Willd." /><tag k="name" v="Platano comune" /></node><node id="-1" lat="45.6107" lon="13.87232" version="1"><tag k="ref:mipaaft" v="013/L424/TS/06" /><tag k="denotation" v="landmark" /><tag k="natural" v="tree" /><tag k="survey:date" v="28-Jul-2015" /><tag k="source" v="Regione FVG" /></node><node id="-2" lat="45.9685" lon="12.44801" version="1"><tag k="survey:date" v="29-Jul-2015" /><tag k="denotation" v="natural_monument" /><tag k="circumference" v="2.82" /><tag k="natural" v="tree" /><tag k="source" v="Regione FVG" /><tag k="ref:mipaaft" v="002/B598/PN/06" /><tag k="height" v="19" /><tag k="species" v="Tilia cordata Mill." /><tag k="name" v="Tiglio selvatico" /></node><node id="-3" lat="46.0646" lon="13.23722" version="1"><tag k="survey:date" v="19-Sep-2016" /><tag k="denotation" v="natural_monument" /><tag k="circumference" v="4.54" /><tag k="natural" v="tree" /><tag k="source" v="Regione FVG" /><tag k="ref:mipaaft" v="022/L483/UD/06" /><tag k="height" v="23" /><tag k="species" v="Celtis australis L." /><tag k="name" v="Bagolaro" /></node><node id="-4" lat="46.0639" lon="13.22777" version="1"><tag k="survey:date" v="19-Sep-2016" /><tag k="denotation" v="natural_monument" /><tag k="circumference" v="4.3" /><tag k="natural" v="tree" /><tag k="source" v="Regione FVG" /><tag k="ref:mipaaft" v="018/L483/UD/06" /><tag k="height" v="32" /><tag k="species" v="Cedrus deodara  (D.Don) G.Don" /><tag k="name" v="Cedro dell'Himalaya" /></node><node id="-5" lat="46.0633" lon="13.22816" version="1"><tag k="survey:date" v="19-Sep-2016" /><tag k="denotation" v="natural_monument" /><tag k="circumference" v="6.17" /><tag k="natural" v="tree" /><tag k="source" v="Regione FVG" /><tag k="ref:mipaaft" v="017/L483/UD/06" /><tag k="height" v="34" /><tag k="species" v="Cedrus deodara  (D.Don) G.Don" /><tag k="name" v="Cedro dell'Himalaya" /></node><node id="-6" lat="46.0644" lon="13.23676" version="1"><tag k="survey:date" v="19-Sep-2016" /><tag k="denotation" v="natural_monument" /><tag k="circumference" v="4.01" /><tag k="natural" v="tree" /><tag k="source" v="Regione FVG" /><tag k="ref:mipaaft" v="003/L483/UD/06" /><tag k="height" v="27" /><tag k="species" v="Cedrus deodara  (D.Don) G.Don" /><tag k="name" v="Cedro dell'Himalaya" /></node><node id="-7" lat="46.064" lon="13.23593" version="1"><tag k="survey:date" v="19-Sep-2016" /><tag k="denotation" v="natural_monument" /><tag k="circumference" v="4.48" /><tag k="natural" v="tree" /><tag k="source" v="Regione FVG" /><tag k="ref:mipaaft" v="002/L483/UD/06" /><tag k="height" v="27" /><tag k="species" v="Cedrus deodara  (D.Don) G.Don" /><tag k="name" v="Cedro dell'Himalaya" /></node><node id="-8" lat="46.0642" lon="13.23651" version="1"><tag k="survey:date" v="19-Sep-2016" /><tag k="denotation" v="natural_monument" /><tag k="circumference" v="5.22" /><tag k="natural" v="tree" /><tag k="source" v="Regione FVG" /><tag k="ref:mipaaft" v="001/L483/UD/06" /><tag k="height" v="31" /><tag k="species" v="Cedrus deodara  (D.Don) G.Don" /><tag k="name" v="Cedro dell'Himalaya" /></node><node id="-9" lat="46.0637" lon="13.23925" version="1"><tag k="survey:date" v="26-Sep-2016" /><tag k="denotation" v="natural_monument" /><tag k="circumference" v="6.94" /><tag k="natural" v="tree" /><tag k="source" v="Regione FVG" /><tag k="ref:mipaaft" v="013/L483/UD/06" /><tag k="height" v="22" /><tag k="species" v="Calocedrus decurrens (Torr.) Florin" /><tag k="name" v="Libocedro" /></node><node id="-10" lat="46.0637" lon="13.23891" version="1"><tag k="survey:date" v="26-Sep-2016" /><tag k="denotation" v="natural_monument" /><tag k="circumference" v="3.155" /><tag k="natural" v="tree" /><tag k="source" v="Regione FVG" /><tag k="ref:mipaaft" v="012/L483/UD/06" /><tag k="height" v="15" /><tag k="species" v="Morus alba L." /><tag k="name" v="Gelso bianco" /></node><node id="-11" lat="45.9673" lon="12.43094" version="1"><tag k="survey:date" v="29-Jul-2015" /><tag k="denotation" v="natural_monument" /><tag k="circumference" v="4.5" /><tag k="natural" v="tree" /><tag k="source" v="Regione FVG" /><tag k="ref:mipaaft" v="001/B598/PN/06" /><tag k="height" v="28" /><tag k="species" v="Celtis australis L." /><tag k="name" v="Bagolaro" /></node><node id="-12" lat="46.173" lon="13.45954" version="1"><tag k="survey:date" v="01-Oct-2016" /><tag k="denotation" v="natural_monument" /><tag k="circumference" v="7.83" /><tag k="natural" v="tree" /><tag k="source" v="Regione FVG" /><tag k="ref:mipaaft" v="001/H089/UD/06" /><tag k="height" v="25" /><tag k="species" v="Castanea sativa Mill." /><tag k="name" v="Castagno" /></node><node id="-13" lat="46.3322" lon="12.62792" version="1"><tag k="survey:date" v="14-Aug-2015" /><tag k="denotation" v="natural_monument" /><tag k="circumference" v="4.42" /><tag k="natural" v="tree" /><tag k="source" v="Regione FVG" /><tag k="ref:mipaaft" v="004/C790/PN/06" /><tag k="height" v="27" /><tag k="species" v="Picea abies (L.) H. Karst." /><tag k="name" v="Abete rosso" /></node><node id="-14" lat="45.5948" lon="13.76698" version="1"><tag k="survey:date" v="22-Jun-2015" /><tag k="denotation" v="natural_monument" /><tag k="circumference" v="4.1" /><tag k="natural" v="tree" /><tag k="source" v="Regione FVG" /><tag k="ref:mipaaft" v="001/F795/TS/06" /><tag k="height" v="17" /><tag k="species" v="Salix alba L." /><tag k="name" v="Salice bianco" /></node><node id="-15" lat="45.637" lon="13.80185" version="1"><tag k="survey:date" v="29-Jul-2015" /><tag k="denotation" v="natural_monument" /><tag k="circumference" v="3.43" /><tag k="natural" v="tree" /><tag k="source" v="Regione FVG" /><tag k="ref:mipaaft" v="012/L424/TS/06" /><tag k="height" v="20" /><tag k="species" v="Zelkova carpinifolia (Pall.) K. Koch" /><tag k="name" v="Olmo del Caucaso" /></node><node id="-16" lat="45.7041" lon="13.71361" version="1"><tag k="survey:date" v="27-Jul-2015" /><tag k="denotation" v="natural_monument" /><tag k="circumference" v="4.25" /><tag k="natural" v="tree" /><tag k="source" v="Regione FVG" /><tag k="ref:mipaaft" v="011/L424/TS/06" /><tag k="height" v="30" /><tag k="species" v="Sequoia sempervirens (D. Don) Endl" /><tag k="name" v="Sequoia sempreverde" /></node><node id="-17" lat="45.653" lon="13.80522" version="1"><tag k="survey:date" v="23-Jul-2015" /><tag k="denotation" v="natural_monument" /><tag k="circumference" v="4.2" /><tag k="natural" v="tree" /><tag k="source" v="Regione FVG" /><tag k="ref:mipaaft" v="010/L424/TS/06" /><tag k="height" v="15" /><tag k="species" v="Quercus pubescens Willd." /><tag k="name" v="Roverella" /></node><node id="-18" lat="45.6608" lon="13.79651" version="1"><tag k="survey:date" v="23-Jul-2015" /><tag k="denotation" v="natural_monument" /><tag k="circumference" v="2.44" /><tag k="natural" v="tree" /><tag k="source" v="Regione FVG" /><tag k="ref:mipaaft" v="009/L424/TS/06" /><tag k="height" v="15" /><tag k="species" v="Quercus pubescens Willd." /><tag k="name" v="Roverella" /></node><node id="-19" lat="45.654" lon="13.78437" version="1"><tag k="survey:date" v="27-Jul-2015" /><tag k="denotation" v="natural_monument" /><tag k="circumference" v="5.25" /><tag k="natural" v="tree" /><tag k="source" v="Regione FVG" /><tag k="ref:mipaaft" v="008/L424/TS/06" /><tag k="height" v="31" /><tag k="species" v="Platanus acerifolia (Aiton) Willd." /><tag k="name" v="Platano comune" /></node><node id="-20" lat="45.6539" lon="13.78409" version="1"><tag k="survey:date" v="27-Jul-2015" /><tag k="denotation" v="natural_monument" /><tag k="circumference" v="5.2" /><tag k="natural" v="tree" /><tag k="source" v="Regione FVG" /><tag k="ref:mipaaft" v="007/L424/TS/06" /><tag k="height" v="28" /><tag k="species" v="Platanus acerifolia (Aiton) Willd." /><tag k="name" v="Platano comune" /></node><node id="-21" lat="46.0767" lon="12.56999" version="1"><tag k="survey:date" v="17-Jun-2015" /><tag k="denotation" v="landmark" /><tag k="circumference" v="6.79" /><tag k="natural" v="tree" /><tag k="source" v="Regione FVG" /><tag k="ref:mipaaft" v="002/A516/PN/06" /><tag k="height" v="13" /><tag k="species" v="Acer campestre L." /><tag k="name" v="Acero campestre" /></node><node id="-22" lat="45.7035" lon="13.71641" version="1"><tag k="survey:date" v="27-Jul-2015" /><tag k="denotation" v="natural_monument" /><tag k="circumference" v="2.5" /><tag k="natural" v="tree" /><tag k="source" v="Regione FVG" /><tag k="ref:mipaaft" v="006/L424/TS/06" /><tag k="height" v="20" /><tag k="species" v="Pinus sabiniana Dougl." /><tag k="name" v="Pino grigio" /></node><node id="-23" lat="45.6441" lon="13.81526" version="1"><tag k="survey:date" v="28-Jul-2015" /><tag k="denotation" v="natural_monument" /><tag k="circumference" v="3.6" /><tag k="natural" v="tree" /><tag k="source" v="Regione FVG" /><tag k="ref:mipaaft" v="005/L424/TS/06" /><tag k="height" v="23" /><tag k="species" v="Pinus  halepensis Mill." /><tag k="name" v="Pino d'Aleppo" /></node><node id="-24" lat="45.7057" lon="13.80355" version="1"><tag k="survey:date" v="28-Jul-2015" /><tag k="denotation" v="natural_monument" /><tag k="circumference" v="3.1" /><tag k="natural" v="tree" /><tag k="source" v="Regione FVG" /><tag k="ref:mipaaft" v="004/L424/TS/06" /><tag k="height" v="35" /><tag k="species" v="Quercus cerris L." /><tag k="name" v="Cerro" /></node><node id="-25" lat="45.705" lon="13.71528" version="1"><tag k="survey:date" v="27-Jul-2015" /><tag k="denotation" v="natural_monument" /><tag k="circumference" v="4.1" /><tag k="natural" v="tree" /><tag k="source" v="Regione FVG" /><tag k="ref:mipaaft" v="003/L424/TS/06" /><tag k="height" v="18" /><tag k="species" v="Cupressus sempervirens L." /><tag k="name" v="Cipresso comune" /></node><node id="-26" lat="45.7037" lon="13.7129" version="1"><tag k="survey:date" v="27-Jul-2015" /><tag k="denotation" v="natural_monument" /><tag k="circumference" v="2.49" /><tag k="natural" v="tree" /><tag k="source" v="Regione FVG" /><tag k="ref:mipaaft" v="002/L424/TS/06" /><tag k="height" v="28" /><tag k="species" v="Quercus ilex L." /><tag k="name" v="Leccio" /></node><node id="-27" lat="46.4978" lon="13.59869" version="1"><tag k="ref:mipaaft" v="012/L057/UD/06" /><tag k="denotation" v="natural_monument" /><tag k="natural" v="tree" /><tag k="survey:date" v="03-Jun-2014" /><tag k="source" v="Regione FVG" /></node><node id="-28" lat="46.4376" lon="13.5855" version="1"><tag k="survey:date" v="09-Oct-2016" /><tag k="denotation" v="natural_monument" /><tag k="circumference" v="4.95" /><tag k="natural" v="tree" /><tag k="source" v="Regione FVG" /><tag k="ref:mipaaft" v="010/L057/UD/06" /><tag k="height" v="32" /><tag k="species" v="Abies alba Mill." /><tag k="name" v="Abete bianco" /></node><node id="-29" lat="46.3321" lon="12.62758" version="1"><tag k="survey:date" v="24-Aug-2015" /><tag k="denotation" v="natural_monument" /><tag k="circumference" v="4.02" /><tag k="natural" v="tree" /><tag k="source" v="Regione FVG" /><tag k="ref:mipaaft" v="003/C790/PN/06" /><tag k="height" v="33" /><tag k="species" v="Picea abies (L.) H. Karst." /><tag k="name" v="Abete rosso" /></node><node id="-30" lat="46.2482" lon="12.55567" version="1"><tag k="survey:date" v="14-Aug-2015" /><tag k="denotation" v="natural_monument" /><tag k="circumference" v="4.52" /><tag k="natural" v="tree" /><tag k="source" v="Regione FVG" /><tag k="ref:mipaaft" v="002/C790/PN/06" /><tag k="height" v="23" /><tag k="species" v="Picea abies (L.) H. Karst." /><tag k="name" v="Abete rosso" /></node><node id="-31" lat="46.2484" lon="12.55495" version="1"><tag k="survey:date" v="14-Aug-2015" /><tag k="denotation" v="natural_monument" /><tag k="circumference" v="3.86" /><tag k="natural" v="tree" /><tag k="source" v="Regione FVG" /><tag k="ref:mipaaft" v="001/C790/PN/06" /><tag k="height" v="22" /><tag k="species" v="Picea abies (L.) H. Karst." /><tag k="name" v="Abete rosso" /></node><node id="-32" lat="46.1305" lon="12.52675" version="1"><tag k="survey:date" v="17-Jun-2015" /><tag k="denotation" v="landmark" /><tag k="circumference" v="4.7" /><tag k="natural" v="tree" /><tag k="source" v="Regione FVG" /><tag k="ref:mipaaft" v="001/A516/PN/06" /><tag k="height" v="18" /><tag k="species" v="Fagus sylvatica L." /><tag k="name" v="Faggio" /></node><node id="-33" lat="46.1691" lon="12.70643" version="1"><tag k="survey:date" v="16-Jul-2015" /><tag k="denotation" v="natural_monument" /><tag k="circumference" v="4.35" /><tag k="natural" v="tree" /><tag k="source" v="Regione FVG" /><tag k="ref:mipaaft" v="002/E889/PN/06" /><tag k="height" v="22" /><tag k="species" v="Thuja plicata Donn ex D.Don" /><tag k="name" v="Tuia gigante" /></node><node id="-34" lat="46.1729" lon="12.70099" version="1"><tag k="survey:date" v="16-Jul-2015" /><tag k="denotation" v="natural_monument" /><tag k="circumference" v="4.45" /><tag k="natural" v="tree" /><tag k="source" v="Regione FVG" /><tag k="ref:mipaaft" v="001/E889/PN/06" /><tag k="height" v="35" /><tag k="species" v="Fagus sylvatica L." /><tag k="name" v="Faggio" /></node><node id="-35" lat="45.7714" lon="13.62964" version="1"><tag k="survey:date" v="29-Jul-2015" /><tag k="denotation" v="natural_monument" /><tag k="circumference" v="3.2" /><tag k="natural" v="tree" /><tag k="source" v="Regione FVG" /><tag k="ref:mipaaft" v="002/D383/TS/06" /><tag k="height" v="28" /><tag k="species" v="Cupressus macrocarpa Hartw." /><tag k="name" v="Cipresso di Monterey" /></node><node id="-36" lat="45.7709" lon="13.62441" version="1"><tag k="denotation" v="natural_monument" /><tag k="circumference" v="0.92" /><tag k="natural" v="tree" /><tag k="source" v="Regione FVG" /><tag k="ref:mipaaft" v="001/D383/TS/06" /><tag k="height" v="7" /><tag k="species" v="Pistacia terebinthus L." /><tag k="name" v="Terebinto" /></node><node id="-37" lat="46.4484" lon="12.82689" version="1"><tag k="survey:date" v="23-Jul-2015" /><tag k="denotation" v="natural_monument" /><tag k="circumference" v="2.54" /><tag k="natural" v="tree" /><tag k="source" v="Regione FVG" /><tag k="ref:mipaaft" v="001/H200/UD/06" /><tag k="height" v="15" /><tag k="species" v="Pyrus pyraster (L.) Burgsd." /><tag k="name" v="Pero selvatico" /></node><node id="-38" lat="46.4391" lon="12.8321" version="1"><tag k="survey:date" v="23-Jul-2015" /><tag k="denotation" v="natural_monument" /><tag k="circumference" v="3.45" /><tag k="natural" v="tree" /><tag k="source" v="Regione FVG" /><tag k="ref:mipaaft" v="001/D408/UD/06" /><tag k="height" v="17" /><tag k="species" v="Fagus sylvatica L." /><tag k="name" v="Faggio" /></node><node id="-39" lat="45.6872" lon="13.78673" version="1"><tag k="survey:date" v="11-Dec-2016" /><tag k="denotation" v="natural_monument" /><tag k="source" v="Regione FVG" /><tag k="ref:mipaaft" v="015/L424/TS/06" /><tag k="natural" v="tree" /><tag k="species" v="Styphnolobium japonicum (L.) Schott" /><tag k="name" v="Sofora del Giappone" /></node><node id="-40" lat="46.2145" lon="13.22504" version="1"><tag k="survey:date" v="10-Dec-2016" /><tag k="denotation" v="natural_monument" /><tag k="circumference" v="4.5" /><tag k="natural" v="tree" /><tag k="source" v="Regione FVG" /><tag k="ref:mipaaft" v="002/L050/UD/06" /><tag k="height" v="24" /><tag k="species" v="Populus nigra L." /><tag k="name" v="Pioppo nero" /></node><node id="-41" lat="46.1228" lon="13.15925" version="1"><tag k="survey:date" v="14-Oct-2016" /><tag k="denotation" v="natural_monument" /><tag k="circumference" v="3.7" /><tag k="natural" v="tree" /><tag k="source" v="Regione FVG" /><tag k="ref:mipaaft" v="003/F760/UD/06" /><tag k="height" v="26" /><tag k="species" v="Aesculus hippocastanum L." /><tag k="name" v="Ippocastano" /></node><node id="-42" lat="46.1234" lon="13.15979" version="1"><tag k="survey:date" v="14-Oct-2016" /><tag k="denotation" v="natural_monument" /><tag k="natural" v="tree" /><tag k="source" v="Regione FVG" /><tag k="ref:mipaaft" v="002/F760/UD/06" /><tag k="height" v="25" /><tag k="species" v="Juglans nigra L." /><tag k="name" v="Noce nero" /></node><node id="-43" lat="45.8869" lon="13.58168" version="1"><tag k="survey:date" v="21-Jul-2015" /><tag k="denotation" v="landmark" /><tag k="circumference" v="1.2" /><tag k="natural" v="tree" /><tag k="source" v="Regione FVG" /><tag k="ref:mipaaft" v="002/I479/GO/06" /><tag k="height" v="14" /><tag k="species" v="Wisteria sinensis (Sims) Sweet" /><tag k="name" v="Glicine" /></node><node id="-44" lat="46.1232" lon="13.15977" version="1"><tag k="survey:date" v="14-Oct-2016" /><tag k="denotation" v="natural_monument" /><tag k="circumference" v="4.1" /><tag k="natural" v="tree" /><tag k="source" v="Regione FVG" /><tag k="ref:mipaaft" v="001/F760/UD/06" /><tag k="height" v="27" /><tag k="species" v="Ginkgo biloba L." /><tag k="name" v="Ginco" /></node><node id="-45" lat="46.0634" lon="13.23978" version="1"><tag k="ref:mipaaft" v="014/L483/UD/06" /><tag k="denotation" v="natural_monument" /><tag k="natural" v="tree" /><tag k="survey:date" v="27-Sep-2016" /><tag k="source" v="Regione FVG" /></node><node id="-46" lat="46.0628" lon="13.23946" version="1"><tag k="survey:date" v="27-Sep-2016" /><tag k="denotation" v="natural_monument" /><tag k="circumference" v="4.3" /><tag k="natural" v="tree" /><tag k="source" v="Regione FVG" /><tag k="ref:mipaaft" v="007/L483/UD/06" /><tag k="height" v="28" /><tag k="species" v="Quercus robur L." /><tag k="name" v="Farnia" /></node><node id="-47" lat="46.0627" lon="13.23976" version="1"><tag k="survey:date" v="27-Sep-2016" /><tag k="denotation" v="landmark" /><tag k="circumference" v="4.73" /><tag k="natural" v="tree" /><tag k="source" v="Regione FVG" /><tag k="ref:mipaaft" v="008/L483/UD/06" /><tag k="height" v="24" /><tag k="species" v="Cedrus atlantica  (Endl.) Manetti ex Carri  re" /><tag k="name" v="Cedro dell'Atlante" /></node><node id="-48" lat="46.063" lon="13.23954" version="1"><tag k="survey:date" v="27-Sep-2016" /><tag k="denotation" v="landmark" /><tag k="circumference" v="4.27" /><tag k="natural" v="tree" /><tag k="source" v="Regione FVG" /><tag k="ref:mipaaft" v="006/L483/UD/06" /><tag k="height" v="22" /><tag k="species" v="Cedrus deodara  (D.Don) G.Don" /><tag k="name" v="Cedro dell'Himalaya" /></node><node id="-49" lat="45.6859" lon="13.12853" version="1"><tag k="denotation" v="landmark" /><tag k="natural" v="tree" /><tag k="source" v="Comune Lignano Sabbiadoro" /></node><node id="-50" lat="45.686" lon="13.12897" version="1"><tag k="denotation" v="landmark" /><tag k="natural" v="tree" /><tag k="source" v="Comune Lignano Sabbiadoro" /></node><node id="-51" lat="45.6775" lon="13.10564" version="1"><tag k="denotation" v="landmark" /><tag k="natural" v="tree" /><tag k="source" v="Comune Lignano Sabbiadoro" /></node><node id="-52" lat="45.6852" lon="13.11981" version="1"><tag k="denotation" v="landmark" /><tag k="natural" v="tree" /><tag k="source" v="Comune Lignano Sabbiadoro" /></node><node id="-53" lat="46.1937" lon="13.53106" version="1"><tag k="survey:date" v="21-Jul-2015" /><tag k="denotation" v="landmark" /><tag k="circumference" v="4.2" /><tag k="natural" v="tree" /><tag k="source" v="Regione FVG" /><tag k="ref:mipaaft" v="001/I478/UD/06" /><tag k="height" v="29" /><tag k="species" v="Fagus sylvatica L." /><tag k="name" v="Faggio" /></node><node id="-54" lat="45.683" lon="13.12944" version="1"><tag k="denotation" v="landmark" /><tag k="natural" v="tree" /><tag k="source" v="Comune Lignano Sabbiadoro" /></node><node id="-55" lat="45.6893" lon="13.13684" version="1"><tag k="denotation" v="landmark" /><tag k="natural" v="tree" /><tag k="source" v="Comune Lignano Sabbiadoro" /></node><node id="-56" lat="45.6842" lon="13.12404" version="1"><tag k="denotation" v="landmark" /><tag k="natural" v="tree" /><tag k="source" v="Comune Lignano Sabbiadoro" /></node><node id="-57" lat="45.6817" lon="13.11897" version="1"><tag k="denotation" v="landmark" /><tag k="natural" v="tree" /><tag k="source" v="Comune Lignano Sabbiadoro" /></node><node id="-58" lat="45.8888" lon="13.49935" version="1"><tag k="survey:date" v="15-Jul-2015" /><tag k="denotation" v="landmark" /><tag k="circumference" v="3.25" /><tag k="natural" v="tree" /><tag k="source" v="Regione FVG" /><tag k="ref:mipaaft" v="002/E124/GO/06" /><tag k="height" v="19" /><tag k="species" v="Pinus  halepensis Mill." /><tag k="name" v="Pino d'Aleppo" /></node><node id="-59" lat="45.9833" lon="13.2117" version="1"><tag k="denotation" v="natural_monument" /><tag k="source" v="Partecipazione" /><tag k="natural" v="tree" /><tag k="name" v="Platano" /></node><node id="-60" lat="46.1577" lon="13.18035" version="1"><tag k="denotation" v="landmark" /><tag k="source" v="Partecipazione" /><tag k="natural" v="tree" /><tag k="name" v="Pino domestico" /></node><node id="-61" lat="46.0976" lon="13.23906" version="1"><tag k="denotation" v="landmark" /><tag k="source" v="Partecipazione" /><tag k="natural" v="tree" /><tag k="name" v="Bagolaro" /></node><node id="-62" lat="46.4649" lon="13.20567" version="1"><tag k="denotation" v="landmark" /><tag k="source" v="Partecipazione" /><tag k="natural" v="tree" /><tag k="name" v="Faggio" /></node><node id="-63" lat="46.0479" lon="12.49334" version="1"><tag k="denotation" v="landmark" /><tag k="source" v="Partecipazione" /><tag k="natural" v="tree" /><tag k="name" v="Gelso" /></node><node id="-64" lat="46.0326" lon="12.4903" version="1"><tag k="denotation" v="landmark" /><tag k="source" v="Partecipazione" /><tag k="natural" v="tree" /><tag k="name" v="Quercia" /></node><node id="-65" lat="46.2014" lon="13.12832" version="1"><tag k="denotation" v="landmark" /><tag k="natural" v="tree" /><tag k="source" v="Partecipazione" /></node><node id="-66" lat="46.5807" lon="12.78312" version="1"><tag k="denotation" v="landmark" /><tag k="source" v="Partecipazione" /><tag k="natural" v="tree" /><tag k="name" v="Abete bianco" /></node><node id="-67" lat="45.885" lon="13.49394" version="1"><tag k="survey:date" v="15-Jul-2015" /><tag k="denotation" v="landmark" /><tag k="circumference" v="3.65" /><tag k="natural" v="tree" /><tag k="source" v="Regione FVG" /><tag k="ref:mipaaft" v="001/E124/GO/06" /><tag k="height" v="16" /><tag k="species" v="Magnolia grandiflora L." /><tag k="name" v="Magnolia" /></node><node id="-68" lat="46.2044" lon="13.11856" version="1"><tag k="denotation" v="landmark" /><tag k="source" v="Partecipazione" /><tag k="natural" v="tree" /><tag k="name" v="Cachi" /></node><node id="-69" lat="46.2077" lon="13.12763" version="1"><tag k="denotation" v="landmark" /><tag k="source" v="Partecipazione" /><tag k="natural" v="tree" /><tag k="name" v="Gelso" /></node><node id="-70" lat="46.4143" lon="12.60423" version="1"><tag k="denotation" v="landmark" /><tag k="source" v="Partecipazione" /><tag k="natural" v="tree" /><tag k="name" v="Larice" /></node><node id="-71" lat="46.0889" lon="13.18657" version="1"><tag k="denotation" v="landmark" /><tag k="source" v="Partecipazione" /><tag k="natural" v="tree" /><tag k="name" v="Sequoia" /></node><node id="-72" lat="46.0644" lon="13.16136" version="1"><tag k="denotation" v="landmark" /><tag k="source" v="Partecipazione" /><tag k="natural" v="tree" /><tag k="name" v="Quercia" /></node><node id="-73" lat="46.5569" lon="12.81406" version="1"><tag k="denotation" v="landmark" /><tag k="source" v="Partecipazione" /><tag k="natural" v="tree" /><tag k="name" v="Faggio" /></node><node id="-74" lat="46.1268" lon="13.27392" version="1"><tag k="denotation" v="landmark" /><tag k="source" v="Partecipazione" /><tag k="natural" v="tree" /><tag k="name" v="Quercia" /></node><node id="-75" lat="46.1897" lon="13.30552" version="1"><tag k="denotation" v="landmark" /><tag k="source" v="Partecipazione" /><tag k="natural" v="tree" /><tag k="name" v="Ginko biloba" /></node><node id="-76" lat="46.0789" lon="13.32912" version="1"><tag k="denotation" v="landmark" /><tag k="source" v="Partecipazione" /><tag k="natural" v="tree" /><tag k="name" v="Gelso" /></node><node id="-77" lat="45.8052" lon="13.50018" version="1"><tag k="survey:date" v="29-Jul-2015" /><tag k="denotation" v="landmark" /><tag k="circumference" v="4.36" /><tag k="natural" v="tree" /><tag k="source" v="Regione FVG" /><tag k="ref:mipaaft" v="001/I939/GO/06" /><tag k="height" v="16" /><tag k="species" v="Celtis australis L." /><tag k="name" v="Bagolaro" /></node><node id="-78" lat="45.9599" lon="12.65518" version="1"><tag k="denotation" v="landmark" /><tag k="source" v="provincia_pn" /><tag k="natural" v="tree" /><tag k="name" v="Farnia" /></node><node id="-79" lat="46.0516" lon="12.56155" version="1"><tag k="denotation" v="landmark" /><tag k="source" v="provincia_pn" /><tag k="natural" v="tree" /><tag k="name" v="Rovere" /></node><node id="-80" lat="46.1655" lon="12.69607" version="1"><tag k="denotation" v="landmark" /><tag k="source" v="provincia_pn" /><tag k="natural" v="tree" /><tag k="name" v="Pino silvestre" /></node><node id="-81" lat="45.9156" lon="12.85953" version="1"><tag k="denotation" v="landmark" /><tag k="source" v="provincia_pn" /><tag k="natural" v="tree" /><tag k="name" v="Pècan" /></node><node id="-82" lat="45.9244" lon="12.81595" version="1"><tag k="denotation" v="landmark" /><tag k="source" v="provincia_pn" /><tag k="natural" v="tree" /><tag k="name" v="Gelso" /></node><node id="-83" lat="46.182" lon="12.94415" version="1"><tag k="denotation" v="landmark" /><tag k="source" v="Partecipazione" /><tag k="natural" v="tree" /><tag k="name" v="Gelso" /></node><node id="-84" lat="46.0084" lon="13.44938" version="1"><tag k="denotation" v="landmark" /><tag k="source" v="Partecipazione" /><tag k="natural" v="tree" /><tag k="name" v="Quercia" /></node><node id="-85" lat="45.8738" lon="12.77192" version="1"><tag k="denotation" v="landmark" /><tag k="source" v="provincia_pn" /><tag k="natural" v="tree" /><tag k="name" v="Sòfora" /></node><node id="-86" lat="45.9009" lon="12.60154" version="1"><tag k="denotation" v="landmark" /><tag k="source" v="provincia_pn" /><tag k="natural" v="tree" /><tag k="name" v="Ippocastano" /></node><node id="-87" lat="46.2715" lon="13.12974" version="1"><tag k="denotation" v="landmark" /><tag k="natural" v="tree" /><tag k="source" v="Partecipazione" /></node><node id="-88" lat="45.9409" lon="13.54205" version="1"><tag k="survey:date" v="15-Jul-2015" /><tag k="denotation" v="landmark" /><tag k="circumference" v="5" /><tag k="natural" v="tree" /><tag k="source" v="Regione FVG" /><tag k="ref:mipaaft" v="001/F767/GO/06" /><tag k="height" v="16" /><tag k="species" v="Quercus robur L." /><tag k="name" v="Farnia" /></node><node id="-89" lat="46.511" lon="13.5265" version="1"><tag k="denotation" v="landmark" /><tag k="source" v="Partecipazione" /><tag k="natural" v="tree" /><tag k="name" v="Quercia" /></node><node id="-90" lat="45.9207" lon="12.57928" version="1"><tag k="denotation" v="landmark" /><tag k="source" v="provincia_pn" /><tag k="natural" v="tree" /><tag k="name" v="Olmo campestre" /></node><node id="-91" lat="45.9579" lon="12.61721" version="1"><tag k="denotation" v="landmark" /><tag k="source" v="Partecipazione" /><tag k="natural" v="tree" /><tag k="name" v="Bagolaro" /></node><node id="-92" lat="46.0632" lon="13.16816" version="1"><tag k="denotation" v="landmark" /><tag k="source" v="Partecipazione" /><tag k="natural" v="tree" /><tag k="name" v="Quercia" /></node><node id="-93" lat="45.98" lon="13.20042" version="1"><tag k="denotation" v="landmark" /><tag k="source" v="Partecipazione" /><tag k="natural" v="tree" /><tag k="name" v="Bagolaro" /></node><node id="-94" lat="46.108" lon="13.13648" version="1"><tag k="denotation" v="landmark" /><tag k="source" v="Partecipazione" /><tag k="natural" v="tree" /><tag k="name" v="Quercia" /></node><node id="-95" lat="46.3099" lon="12.78956" version="1"><tag k="denotation" v="landmark" /><tag k="source" v="Partecipazione" /><tag k="natural" v="tree" /><tag k="name" v="Ippocastano" /></node><node id="-96" lat="46.0081" lon="12.61597" version="1"><tag k="denotation" v="landmark" /><tag k="source" v="Partecipazione" /><tag k="natural" v="tree" /><tag k="name" v="Bagolaro" /></node><node id="-97" lat="46.4851" lon="12.85694" version="1"><tag k="denotation" v="landmark" /><tag k="source" v="Partecipazione" /><tag k="natural" v="tree" /><tag k="name" v="Pero" /></node><node id="-98" lat="46.1923" lon="12.89506" version="1"><tag k="denotation" v="landmark" /><tag k="source" v="Partecipazione" /><tag k="natural" v="tree" /><tag k="name" v="Castagno" /></node><node id="-99" lat="45.7049" lon="13.71316" version="1"><tag k="survey:date" v="27-Jul-2015" /><tag k="denotation" v="natural_monument" /><tag k="circumference" v="2.04" /><tag k="natural" v="tree" /><tag k="source" v="Regione FVG" /><tag k="ref:mipaaft" v="001/L424/TS/06" /><tag k="height" v="10" /><tag k="species" v="Arbutus unedo L." /><tag k="name" v="Corbezzolo" /></node><node id="-100" lat="45.9809" lon="13.49897" version="1"><tag k="survey:date" v="08-Aug-2015" /><tag k="denotation" v="landmark" /><tag k="circumference" v="4.33" /><tag k="natural" v="tree" /><tag k="source" v="Regione FVG" /><tag k="ref:mipaaft" v="001/D014/GO/06" /><tag k="height" v="18" /><tag k="species" v="Quercus pubescens Willd." /><tag k="name" v="Roverella" /></node><node id="-101" lat="46.1947" lon="12.89311" version="1"><tag k="denotation" v="landmark" /><tag k="source" v="Partecipazione" /><tag k="natural" v="tree" /><tag k="name" v="Ciliegio" /></node><node id="-102" lat="46.4076" lon="13.01968" version="1"><tag k="denotation" v="landmark" /><tag k="source" v="Partecipazione" /><tag k="natural" v="tree" /><tag k="species" v="Sequoia sempervirens" /><tag k="name" v="Sequoia" /></node><node id="-103" lat="46.437" lon="12.99393" version="1"><tag k="denotation" v="landmark" /><tag k="source" v="Partecipazione" /><tag k="natural" v="tree" /><tag k="species" v="Aesculus hippocastanum" /><tag k="name" v="Ippocastano" /></node><node id="-104" lat="45.9503" lon="13.62634" version="1"><tag k="survey:date" v="08-Aug-2015" /><tag k="denotation" v="landmark" /><tag k="circumference" v="3.7" /><tag k="natural" v="tree" /><tag k="source" v="Regione FVG" /><tag k="ref:mipaaft" v="007/E098/GO/06" /><tag k="height" v="8" /><tag k="species" v="Morus alba L." /><tag k="name" v="Gelso bianco" /></node><node id="-105" lat="45.9403" lon="13.59379" version="1"><tag k="ref:mipaaft" v="006/E098/GO/06" /><tag k="denotation" v="landmark" /><tag k="natural" v="tree" /><tag k="survey:date" v="08-Aug-2015" /><tag k="source" v="Regione FVG" /></node><node id="-106" lat="45.938" lon="13.62662" version="1"><tag k="survey:date" v="08-Aug-2015" /><tag k="denotation" v="natural_monument" /><tag k="circumference" v="2.8" /><tag k="natural" v="tree" /><tag k="source" v="Regione FVG" /><tag k="ref:mipaaft" v="004/E098/GO/06" /><tag k="height" v="8" /><tag k="species" v="Morus alba L." /><tag k="name" v="Gelso bianco" /></node><node id="-107" lat="45.9445" lon="13.62808" version="1"><tag k="survey:date" v="08-Aug-2015" /><tag k="denotation" v="natural_monument" /><tag k="circumference" v="4.55" /><tag k="natural" v="tree" /><tag k="source" v="Regione FVG" /><tag k="ref:mipaaft" v="003/E098/GO/06" /><tag k="height" v="30" /><tag k="species" v="Platanus acerifolia (Aiton) Willd." /><tag k="name" v="Platano comune" /></node><node id="-108" lat="45.9469" lon="13.6305" version="1"><tag k="ref:mipaaft" v="002/E098/GO/06" /><tag k="denotation" v="natural_monument" /><tag k="natural" v="tree" /><tag k="survey:date" v="08-Aug-2015" /><tag k="source" v="Regione FVG" /></node><node id="-109" lat="45.9409" lon="13.6232" version="1"><tag k="survey:date" v="08-Oct-2015" /><tag k="denotation" v="natural_monument" /><tag k="circumference" v="4.5" /><tag k="natural" v="tree" /><tag k="source" v="Regione FVG" /><tag k="ref:mipaaft" v="001/E098/GO/06" /><tag k="height" v="30" /><tag k="species" v="Platanus acerifolia (Aiton) Willd." /><tag k="name" v="Platano comune" /></node><node id="-110" lat="45.9574" lon="12.61571" version="1"><tag k="denotation" v="landmark" /><tag k="source" v="provincia_pn" /><tag k="natural" v="tree" /><tag k="name" v="Olmo campestre" /></node><node id="-111" lat="46.1681" lon="13.46432" version="1"><tag k="denotation" v="natural_monument" /><tag k="circumference" v="5.2" /><tag k="natural" v="tree" /><tag k="source" v="Regione FVG" /><tag k="ref:mipaaft" v="002/H089/UD/06" /><tag k="height" v="24" /><tag k="species" v="Castanea sativa Mill." /><tag k="name" v="Castagno" /></node><node id="-112" lat="45.9583" lon="12.6163" version="1"><tag k="survey:date" v="15-Oct-2016" /><tag k="denotation" v="landmark" /><tag k="circumference" v="2.45" /><tag k="natural" v="tree" /><tag k="source" v="Regione FVG" /><tag k="ref:mipaaft" v="003/G886/PN/06" /><tag k="height" v="15" /><tag k="species" v="Magnolia grandiflora L." /><tag k="name" v="Magnolia" /></node><node id="-113" lat="45.9558" lon="12.79103" version="1"><tag k="denotation" v="landmark" /><tag k="source" v="provincia_pn" /><tag k="natural" v="tree" /><tag k="name" v="Pioppo" /></node><node id="-114" lat="46.1472" lon="13.53222" version="1"><tag k="survey:date" v="11-Jul-2015" /><tag k="denotation" v="natural_monument" /><tag k="circumference" v="5.6" /><tag k="natural" v="tree" /><tag k="source" v="Regione FVG" /><tag k="ref:mipaaft" v="002/H951/UD/06" /><tag k="height" v="24" /><tag k="species" v="Castanea sativa Mill." /><tag k="name" v="Castagno" /></node><node id="-115" lat="45.691" lon="13.14092" version="1"><tag k="survey:date" v="15-Nov-2016" /><tag k="denotation" v="natural_monument" /><tag k="circumference" v="2.5" /><tag k="natural" v="tree" /><tag k="source" v="Regione FVG" /><tag k="ref:mipaaft" v="002/E584/UD/06" /><tag k="height" v="10" /><tag k="species" v="Quercus pubescens Willd." /><tag k="name" v="Roverella" /></node><node id="-116" lat="45.6821" lon="13.13388" version="1"><tag k="survey:date" v="11-Dec-2015" /><tag k="denotation" v="natural_monument" /><tag k="circumference" v="4.5" /><tag k="natural" v="tree" /><tag k="source" v="Regione FVG" /><tag k="ref:mipaaft" v="001/E584/UD/06" /><tag k="height" v="25" /><tag k="species" v="Pinus  halepensis Mill." /><tag k="name" v="Pino d'Aleppo" /></node><node id="-117" lat="45.8885" lon="12.98862" version="1"><tag k="survey:date" v="05-Aug-2015" /><tag k="denotation" v="natural_monument" /><tag k="circumference" v="5.8" /><tag k="natural" v="tree" /><tag k="source" v="Regione FVG" /><tag k="ref:mipaaft" v="001/L686/UD/06" /><tag k="height" v="29" /><tag k="species" v="Quercus robur L." /><tag k="name" v="Farnia" /></node><node id="-118" lat="46.5866" lon="13.00062" version="1"><tag k="ref:mipaaft" v="001/G300/UD/06" /><tag k="denotation" v="natural_monument" /><tag k="natural" v="tree" /><tag k="survey:date" v="04-Aug-2014" /><tag k="source" v="Regione FVG" /></node><node id="-119" lat="45.9528" lon="13.00902" version="1"><tag k="survey:date" v="05-Oct-2016" /><tag k="denotation" v="natural_monument" /><tag k="circumference" v="4.95" /><tag k="natural" v="tree" /><tag k="source" v="Regione FVG" /><tag k="ref:mipaaft" v="011/C817/UD/06" /><tag k="height" v="21" /><tag k="species" v="Cedrus deodara  (D.Don) G.Don" /><tag k="name" v="Cedro dell'Himalaya" /></node><node id="-120" lat="45.9488" lon="13.00942" version="1"><tag k="survey:date" v="05-Oct-2016" /><tag k="denotation" v="natural_monument" /><tag k="circumference" v="4.09" /><tag k="natural" v="tree" /><tag k="source" v="Regione FVG" /><tag k="ref:mipaaft" v="010/C817/UD/06" /><tag k="height" v="22" /><tag k="species" v="Aesculus hippocastanum L." /><tag k="name" v="Ippocastano" /></node><node id="-121" lat="45.957" lon="12.61789" version="1"><tag k="survey:date" v="15-Oct-2016" /><tag k="denotation" v="landmark" /><tag k="circumference" v="4.5" /><tag k="natural" v="tree" /><tag k="source" v="Regione FVG" /><tag k="ref:mipaaft" v="002/G886/PN/06" /><tag k="height" v="25" /><tag k="species" v="Celtis australis L." /><tag k="name" v="Bagolaro" /></node><node id="-122" lat="45.9497" lon="13.01323" version="1"><tag k="survey:date" v="04-Jul-2015" /><tag k="denotation" v="natural_monument" /><tag k="circumference" v="2.9" /><tag k="natural" v="tree" /><tag k="source" v="Regione FVG" /><tag k="ref:mipaaft" v="007/C817/UD/06" /><tag k="height" v="20" /><tag k="species" v="Gleditzia triacanthos L." /><tag k="name" v="Spino di Giuda" /></node><node id="-123" lat="46.1017" lon="13.54892" version="1"><tag k="survey:date" v="20-Jul-2015" /><tag k="denotation" v="natural_monument" /><tag k="circumference" v="2.35" /><tag k="natural" v="tree" /><tag k="source" v="Regione FVG" /><tag k="ref:mipaaft" v="001/H951/UD/06" /><tag k="height" v="23" /><tag k="species" v="Betula pendula Roth" /><tag k="name" v="Betulla verrucosa" /></node><node id="-124" lat="46.5062" lon="13.3025" version="1"><tag k="survey:date" v="17-Jun-2016" /><tag k="denotation" v="natural_monument" /><tag k="circumference" v="2.92" /><tag k="natural" v="tree" /><tag k="source" v="Regione FVG" /><tag k="ref:mipaaft" v="003/G831/UD/06" /><tag k="height" v="18" /><tag k="species" v="Juglans regia L." /><tag k="name" v="Noce comune" /></node><node id="-125" lat="46.5103" lon="13.31393" version="1"><tag k="survey:date" v="20-Mar-2016" /><tag k="denotation" v="natural_monument" /><tag k="circumference" v="2.48" /><tag k="natural" v="tree" /><tag k="source" v="Regione FVG" /><tag k="ref:mipaaft" v="002/G831/UD/06" /><tag k="height" v="16" /><tag k="species" v="Pyrus communis L." /><tag k="name" v="Pero domestico" /></node><node id="-126" lat="46.5113" lon="13.30599" version="1"><tag k="survey:date" v="03-Oct-2014" /><tag k="denotation" v="natural_monument" /><tag k="circumference" v="3.9" /><tag k="natural" v="tree" /><tag k="source" v="Regione FVG" /><tag k="ref:mipaaft" v="001/G831/UD/06" /><tag k="height" v="25" /><tag k="species" v="Tilia cordata Mill." /><tag k="name" v="Tiglio selvatico" /></node><node id="-127" lat="46.5705" lon="13.11075" version="1"><tag k="survey:date" v="15-Jul-2016" /><tag k="denotation" v="natural_monument" /><tag k="circumference" v="3.65" /><tag k="natural" v="tree" /><tag k="source" v="Regione FVG" /><tag k="ref:mipaaft" v="002/G381/UD/06" /><tag k="height" v="42" /><tag k="species" v="Picea abies (L.) H. Karst." /><tag k="name" v="Abete rosso" /></node><node id="-128" lat="46.0243" lon="13.42946" version="1"><tag k="survey:date" v="21-Jul-2015" /><tag k="denotation" v="natural_monument" /><tag k="circumference" v="1.84" /><tag k="natural" v="tree" /><tag k="source" v="Regione FVG" /><tag k="ref:mipaaft" v="004/H029/UD/06" /><tag k="height" v="15" /><tag k="species" v="Thuja plicata Donn ex D.Don" /><tag k="name" v="Tuia gigante" /></node><node id="-129" lat="46.0238" lon="13.42949" version="1"><tag k="survey:date" v="10-Jul-2015" /><tag k="denotation" v="natural_monument" /><tag k="circumference" v="1.8" /><tag k="natural" v="tree" /><tag k="source" v="Regione FVG" /><tag k="ref:mipaaft" v="003/H029/UD/06" /><tag k="height" v="4.5" /><tag k="species" v="Wisteria sinensis (Sims) Sweet" /><tag k="name" v="Glicine" /></node><node id="-130" lat="46.5066" lon="13.5683" version="1"><tag k="survey:date" v="11-Jun-2014" /><tag k="denotation" v="natural_monument" /><tag k="circumference" v="4.45" /><tag k="natural" v="tree" /><tag k="source" v="Regione FVG" /><tag k="ref:mipaaft" v="009/L057/UD/06" /><tag k="height" v="24" /><tag k="species" v="Salix alba L." /><tag k="name" v="Salice bianco" /></node><node id="-131" lat="45.959" lon="12.61703" version="1"><tag k="survey:date" v="15-Oct-2016" /><tag k="denotation" v="landmark" /><tag k="circumference" v="4.55" /><tag k="natural" v="tree" /><tag k="source" v="Regione FVG" /><tag k="ref:mipaaft" v="001/G886/PN/06" /><tag k="height" v="34" /><tag k="species" v="Liriodendron tulipifera L." /><tag k="name" v="Albero dei tulipani" /></node><node id="-132" lat="46.512" lon="13.62435" version="1"><tag k="survey:date" v="11-Jun-2014" /><tag k="denotation" v="natural_monument" /><tag k="circumference" v="4.05" /><tag k="natural" v="tree" /><tag k="source" v="Regione FVG" /><tag k="ref:mipaaft" v="007/L057/UD/06" /><tag k="height" v="19" /><tag k="species" v="Juglans regia L." /><tag k="name" v="Noce comune" /></node><node id="-133" lat="46.509" lon="13.53436" version="1"><tag k="ref:mipaaft" v="001/L057/UD/06" /><tag k="denotation" v="natural_monument" /><tag k="natural" v="tree" /><tag k="survey:date" v="25-Aug-2016" /><tag k="source" v="Regione FVG" /></node><node id="-134" lat="46.4748" lon="13.53516" version="1"><tag k="survey:date" v="11-Dec-2016" /><tag k="denotation" v="natural_monument" /><tag k="circumference" v="5.31" /><tag k="natural" v="tree" /><tag k="source" v="Regione FVG" /><tag k="ref:mipaaft" v="002/L057/UD/06" /><tag k="height" v="27" /><tag k="species" v="Larix decidua Mill." /><tag k="name" v="Larice" /></node><node id="-135" lat="46.5106" lon="13.52638" version="1"><tag k="survey:date" v="13-Aug-2015" /><tag k="denotation" v="natural_monument" /><tag k="circumference" v="5.25" /><tag k="natural" v="tree" /><tag k="source" v="Regione FVG" /><tag k="ref:mipaaft" v="013/L057/UD/06" /><tag k="height" v="32" /><tag k="species" v="Fagus sylvatica L." /><tag k="name" v="Faggio" /></node><node id="-136" lat="46.4924" lon="13.68677" version="1"><tag k="survey:date" v="15-Mar-2016" /><tag k="denotation" v="natural_monument" /><tag k="circumference" v="4.125" /><tag k="natural" v="tree" /><tag k="source" v="Regione FVG" /><tag k="ref:mipaaft" v="006/L057/UD/06" /><tag k="height" v="29.5" /><tag k="species" v="Acer pseudoplatanus L." /><tag k="name" v="Acero di monte" /></node><node id="-137" lat="46.5407" lon="13.53648" version="1"><tag k="survey:date" v="21-Sep-2015" /><tag k="denotation" v="natural_monument" /><tag k="circumference" v="4.5" /><tag k="natural" v="tree" /><tag k="source" v="Regione FVG" /><tag k="ref:mipaaft" v="005/L057/UD/06" /><tag k="height" v="11" /><tag k="species" v="Acer pseudoplatanus L." /><tag k="name" v="Acero di monte" /></node><node id="-138" lat="46.4756" lon="13.53607" version="1"><tag k="survey:date" v="11-Dec-2016" /><tag k="denotation" v="natural_monument" /><tag k="circumference" v="5.53" /><tag k="natural" v="tree" /><tag k="source" v="Regione FVG" /><tag k="ref:mipaaft" v="004/L057/UD/06" /><tag k="height" v="32.2" /><tag k="species" v="Picea abies (L.) H. Karst." /><tag k="name" v="Abete rosso" /></node><node id="-139" lat="46.4755" lon="13.53568" version="1"><tag k="survey:date" v="11-Dec-2016" /><tag k="denotation" v="natural_monument" /><tag k="circumference" v="4.45" /><tag k="natural" v="tree" /><tag k="source" v="Regione FVG" /><tag k="ref:mipaaft" v="003/L057/UD/06" /><tag k="height" v="31" /><tag k="species" v="Picea abies (L.) H. Karst." /><tag k="name" v="Abete rosso" /></node><node id="-140" lat="46.1733" lon="13.21947" version="1"><tag k="survey:date" v="21-Sep-2016" /><tag k="denotation" v="natural_monument" /><tag k="circumference" v="3.35" /><tag k="natural" v="tree" /><tag k="source" v="Regione FVG" /><tag k="ref:mipaaft" v="006/L421/UD/06" /><tag k="height" v="20" /><tag k="species" v="Cupressus macrocarpa Hartw." /><tag k="name" v="Cipresso di Monterey" /></node><node id="-141" lat="46.1731" lon="13.21944" version="1"><tag k="ref:mipaaft" v="005/L421/UD/06" /><tag k="denotation" v="natural_monument" /><tag k="natural" v="tree" /><tag k="survey:date" v="21-Sep-2016" /><tag k="source" v="Regione FVG" /></node><node id="-142" lat="45.9233" lon="12.6847" version="1"><tag k="survey:date" v="14-Oct-2016" /><tag k="denotation" v="landmark" /><tag k="circumference" v="5.45" /><tag k="natural" v="tree" /><tag k="source" v="Regione FVG" /><tag k="ref:mipaaft" v="001/D621/PN/06" /><tag k="height" v="25" /><tag k="species" v="Quercus robur L." /><tag k="name" v="Farnia" /></node><node id="-143" lat="46.1734" lon="13.2187" version="1"><tag k="ref:mipaaft" v="004/L421/UD/06" /><tag k="denotation" v="natural_monument" /><tag k="natural" v="tree" /><tag k="survey:date" v="21-Sep-2016" /><tag k="source" v="Regione FVG" /></node><node id="-144" lat="46.1736" lon="13.21881" version="1"><tag k="survey:date" v="21-Sep-2016" /><tag k="denotation" v="natural_monument" /><tag k="circumference" v="3.7" /><tag k="natural" v="tree" /><tag k="source" v="Regione FVG" /><tag k="ref:mipaaft" v="003/L421/UD/06" /><tag k="height" v="28" /><tag k="species" v="Populus  canescens (Aiton) Sm." /><tag k="name" v="Pioppo canescente" /></node><node id="-145" lat="46.1617" lon="13.21185" version="1"><tag k="survey:date" v="10-Aug-2016" /><tag k="denotation" v="natural_monument" /><tag k="circumference" v="1.6" /><tag k="natural" v="tree" /><tag k="source" v="Regione FVG" /><tag k="ref:mipaaft" v="002/L421/UD/06" /><tag k="height" v="2.5" /><tag k="species" v="Wisteria sinensis (Sims) Sweet" /><tag k="name" v="Glicine" /></node><node id="-146" lat="46.1591" lon="13.21525" version="1"><tag k="survey:date" v="11-Oct-2016" /><tag k="denotation" v="natural_monument" /><tag k="circumference" v="4.5" /><tag k="natural" v="tree" /><tag k="source" v="Regione FVG" /><tag k="ref:mipaaft" v="001/L421/UD/06" /><tag k="height" v="31" /><tag k="species" v="Cedrus deodara  (D.Don) G.Don" /><tag k="name" v="Cedro dell'Himalaya" /></node><node id="-147" lat="46.1025" lon="13.44248" version="1"><tag k="survey:date" v="22-Jul-2015" /><tag k="denotation" v="natural_monument" /><tag k="circumference" v="0.68" /><tag k="natural" v="tree" /><tag k="source" v="Regione FVG" /><tag k="ref:mipaaft" v="006/C758/UD/06" /><tag k="height" v="2.5" /><tag k="species" v="Vitis vinifera L." /><tag k="name" v="Vite" /></node><node id="-148" lat="46.0897" lon="13.45136" version="1"><tag k="survey:date" v="21-Jul-2015" /><tag k="denotation" v="natural_monument" /><tag k="circumference" v="2.4" /><tag k="natural" v="tree" /><tag k="source" v="Regione FVG" /><tag k="ref:mipaaft" v="005/C758/UD/06" /><tag k="height" v="5.5" /><tag k="species" v="Morus nigra L." /><tag k="name" v="Gelso nero" /></node><node id="-149" lat="46.0556" lon="13.4235" version="1"><tag k="survey:date" v="21-Jul-2015" /><tag k="denotation" v="natural_monument" /><tag k="circumference" v="4.3" /><tag k="natural" v="tree" /><tag k="source" v="Regione FVG" /><tag k="ref:mipaaft" v="004/C758/UD/06" /><tag k="height" v="25" /><tag k="species" v="Populus nigra L." /><tag k="name" v="Pioppo nero" /></node><node id="-150" lat="46.1095" lon="13.41542" version="1"><tag k="survey:date" v="20-Jul-2015" /><tag k="denotation" v="natural_monument" /><tag k="circumference" v="3.55" /><tag k="natural" v="tree" /><tag k="source" v="Regione FVG" /><tag k="ref:mipaaft" v="003/C758/UD/06" /><tag k="height" v="21" /><tag k="species" v="Ulmus minor Mill." /><tag k="name" v="Olmo campestre" /></node><node id="-151" lat="46.0949" lon="13.42889" version="1"><tag k="survey:date" v="20-Jul-2016" /><tag k="denotation" v="natural_monument" /><tag k="circumference" v="3.5" /><tag k="natural" v="tree" /><tag k="source" v="Regione FVG" /><tag k="ref:mipaaft" v="002/C758/UD/06" /><tag k="height" v="25" /><tag k="species" v="Ginkgo biloba L." /><tag k="name" v="Ginco" /></node><node id="-152" lat="46.182" lon="12.46385" version="1"><tag k="survey:date" v="12-Oct-2014" /><tag k="denotation" v="landmark" /><tag k="circumference" v="4.24" /><tag k="natural" v="tree" /><tag k="source" v="Regione FVG" /><tag k="ref:mipaaft" v="001/A640/PN/06" /><tag k="height" v="15" /><tag k="species" v="Taxus baccata L." /><tag k="name" v="Tasso" /></node><node id="-153" lat="46.0073" lon="13.14898" version="1"><tag k="ref:mipaaft" v="004/A700/UD/06" /><tag k="denotation" v="natural_monument" /><tag k="natural" v="tree" /><tag k="survey:date" v="06-Oct-2015" /><tag k="source" v="Regione FVG" /></node><node id="-154" lat="45.9956" lon="13.08148" version="1"><tag k="survey:date" v="06-Oct-2015" /><tag k="denotation" v="natural_monument" /><tag k="circumference" v="3.38" /><tag k="natural" v="tree" /><tag k="source" v="Regione FVG" /><tag k="ref:mipaaft" v="003/A700/UD/06" /><tag k="height" v="8" /><tag k="species" v="Morus nigra L." /><tag k="name" v="Gelso nero" /></node><node id="-155" lat="46.0122" lon="13.06844" version="1"><tag k="survey:date" v="29-Sep-2015" /><tag k="denotation" v="natural_monument" /><tag k="circumference" v="3.78" /><tag k="natural" v="tree" /><tag k="source" v="Regione FVG" /><tag k="ref:mipaaft" v="002/A700/UD/06" /><tag k="height" v="18" /><tag k="species" v="Styphnolobium japonicum (L.) Schott" /><tag k="name" v="Sofora del Giappone" /></node><node id="-156" lat="45.9953" lon="13.07671" version="1"><tag k="survey:date" v="22-Sep-2015" /><tag k="denotation" v="natural_monument" /><tag k="circumference" v="4" /><tag k="natural" v="tree" /><tag k="source" v="Regione FVG" /><tag k="ref:mipaaft" v="001/A700/UD/06" /><tag k="height" v="18" /><tag k="species" v="Celtis australis L." /><tag k="name" v="Bagolaro" /></node><node id="-157" lat="46.1914" lon="13.3041" version="1"><tag k="survey:date" v="05-Jul-2015" /><tag k="denotation" v="natural_monument" /><tag k="circumference" v="6.6" /><tag k="natural" v="tree" /><tag k="source" v="Regione FVG" /><tag k="ref:mipaaft" v="004/A491/UD/06" /><tag k="height" v="31" /><tag k="species" v="Quercus robur L." /><tag k="name" v="Farnia" /></node><node id="-158" lat="46.1885" lon="13.30547" version="1"><tag k="survey:date" v="05-Jul-2015" /><tag k="denotation" v="natural_monument" /><tag k="circumference" v="4.7" /><tag k="natural" v="tree" /><tag k="source" v="Regione FVG" /><tag k="ref:mipaaft" v="003/A491/UD/06" /><tag k="height" v="21" /><tag k="species" v="Platanus acerifolia (Aiton) Willd." /><tag k="name" v="Platano comune" /></node><node id="-159" lat="46.1867" lon="13.31173" version="1"><tag k="survey:date" v="05-Jul-2015" /><tag k="denotation" v="natural_monument" /><tag k="circumference" v="6" /><tag k="natural" v="tree" /><tag k="source" v="Regione FVG" /><tag k="ref:mipaaft" v="002/A491/UD/06" /><tag k="height" v="35" /><tag k="species" v="Thuja plicata Donn ex D.Don" /><tag k="name" v="Tuia gigante" /></node><node id="-160" lat="45.8252" lon="13.50042" version="1"><tag k="survey:date" v="11-Nov-2016" /><tag k="denotation" v="landmark" /><tag k="circumference" v="4.1" /><tag k="natural" v="tree" /><tag k="source" v="Regione FVG" /><tag k="ref:mipaaft" v="001/H531/GO/06" /><tag k="height" v="22" /><tag k="species" v="Populus nigra L." /><tag k="name" v="Pioppo nero" /></node><node id="-161" lat="46.0826" lon="13.18638" version="1"><tag k="survey:date" v="10-Aug-2016" /><tag k="denotation" v="natural_monument" /><tag k="circumference" v="4.1" /><tag k="natural" v="tree" /><tag k="source" v="Regione FVG" /><tag k="ref:mipaaft" v="026/L483/UD/06" /><tag k="height" v="24" /><tag k="species" v="Populus nigra L." /><tag k="name" v="Pioppo nero" /></node><node id="-162" lat="45.7501" lon="13.45943" version="1"><tag k="survey:date" v="01-Nov-2016" /><tag k="denotation" v="natural_monument" /><tag k="circumference" v="5.14" /><tag k="natural" v="tree" /><tag k="source" v="Regione FVG" /><tag k="ref:mipaaft" v="001/E125/GO/06" /><tag k="height" v="20" /><tag k="species" v="Quercus robur L." /><tag k="name" v="Farnia" /></node><node id="-163" lat="46.1636" lon="12.86936" version="1"><tag k="survey:date" v="05-Nov-2016" /><tag k="denotation" v="natural_monument" /><tag k="circumference" v="3.61" /><tag k="natural" v="tree" /><tag k="source" v="Regione FVG" /><tag k="ref:mipaaft" v="001/I621/PN/06" /><tag k="height" v="21" /><tag k="species" v="Quercus robur L." /><tag k="name" v="Farnia" /></node><node id="-164" lat="45.9494" lon="13.00857" version="1"><tag k="survey:date" v="18-Oct-2016" /><tag k="denotation" v="natural_monument" /><tag k="circumference" v="4.2" /><tag k="natural" v="tree" /><tag k="source" v="Regione FVG" /><tag k="ref:mipaaft" v="004/C817/UD/06" /><tag k="height" v="19" /><tag k="species" v="Paulownia tomentosa (Thunb.) Steud." /><tag k="name" v="Paulonia" /></node><node id="-165" lat="45.9501" lon="13.01248" version="1"><tag k="survey:date" v="18-Oct-2016" /><tag k="denotation" v="natural_monument" /><tag k="circumference" v="1.9" /><tag k="natural" v="tree" /><tag k="source" v="Regione FVG" /><tag k="ref:mipaaft" v="003/C817/UD/06" /><tag k="height" v="15" /><tag k="species" v="Magnolia grandiflora L." /><tag k="name" v="Magnolia" /></node><node id="-166" lat="45.9504" lon="13.00824" version="1"><tag k="survey:date" v="17-Oct-2016" /><tag k="denotation" v="natural_monument" /><tag k="circumference" v="4.28" /><tag k="natural" v="tree" /><tag k="source" v="Regione FVG" /><tag k="ref:mipaaft" v="001/C817/UD/06" /><tag k="height" v="22" /><tag k="species" v="Celtis australis L." /><tag k="name" v="Bagolaro" /></node><node id="-167" lat="45.9497" lon="13.00938" version="1"><tag k="survey:date" v="17-Oct-2016" /><tag k="denotation" v="natural_monument" /><tag k="circumference" v="4.75" /><tag k="natural" v="tree" /><tag k="source" v="Regione FVG" /><tag k="ref:mipaaft" v="002/C817/UD/06" /><tag k="height" v="26.6" /><tag k="species" v="Cedrus deodara  (D.Don) G.Don" /><tag k="name" v="Cedro dell'Himalaya" /></node><node id="-168" lat="45.9494" lon="13.01188" version="1"><tag k="survey:date" v="15-Feb-2017" /><tag k="denotation" v="natural_monument" /><tag k="circumference" v="4.1" /><tag k="natural" v="tree" /><tag k="source" v="Regione FVG" /><tag k="ref:mipaaft" v="008/C817/UD/06" /><tag k="height" v="16" /><tag k="species" v="Taxus baccata L." /><tag k="name" v="Tasso" /></node><node id="-169" lat="46.0015" lon="12.43096" version="1"><tag k="survey:date" v="29-Jul-2015" /><tag k="denotation" v="natural_monument" /><tag k="circumference" v="4.3" /><tag k="natural" v="tree" /><tag k="source" v="Regione FVG" /><tag k="ref:mipaaft" v="003/B598/PN/06" /><tag k="height" v="12" /><tag k="species" v="Castanea sativa Mill." /><tag k="name" v="Castagno" /></node><node id="-170" lat="45.9217" lon="13.13886" version="1"><tag k="survey:date" v="05-Jun-2016" /><tag k="denotation" v="natural_monument" /><tag k="circumference" v="5.74" /><tag k="natural" v="tree" /><tag k="source" v="Regione FVG" /><tag k="ref:mipaaft" v="001/L039/UD/06" /><tag k="height" v="27.3" /><tag k="species" v="Cedrus deodara  (D.Don) G.Don" /><tag k="name" v="Cedro dell'Himalaya" /></node><node id="-171" lat="46.2156" lon="13.22285" version="1"><tag k="survey:date" v="18-Sep-2016" /><tag k="denotation" v="natural_monument" /><tag k="circumference" v="5.25" /><tag k="natural" v="tree" /><tag k="source" v="Regione FVG" /><tag k="ref:mipaaft" v="001/L050/UD/06" /><tag k="height" v="30" /><tag k="species" v="Platanus occidentalis L." /><tag k="name" v="Platano occidentale" /></node><node id="-172" lat="46.4743" lon="12.77683" version="1"><tag k="survey:date" v="13-Mar-2016" /><tag k="denotation" v="natural_monument" /><tag k="circumference" v="4.94" /><tag k="natural" v="tree" /><tag k="source" v="Regione FVG" /><tag k="ref:mipaaft" v="001/A267/UD/06" /><tag k="height" v="25" /><tag k="species" v="Larix decidua Mill." /><tag k="name" v="Larice" /></node><node id="-173" lat="46.5648" lon="13.11674" version="1"><tag k="survey:date" v="12-Jun-2016" /><tag k="denotation" v="natural_monument" /><tag k="circumference" v="3.8" /><tag k="natural" v="tree" /><tag k="source" v="Regione FVG" /><tag k="ref:mipaaft" v="001/G381/UD/06" /><tag k="height" v="35" /><tag k="species" v="Abies alba Mill." /><tag k="name" v="Abete bianco" /></node><node id="-174" lat="46.0239" lon="13.42897" version="1"><tag k="survey:date" v="20-Sep-2016" /><tag k="denotation" v="natural_monument" /><tag k="circumference" v="5.36" /><tag k="natural" v="tree" /><tag k="source" v="Regione FVG" /><tag k="ref:mipaaft" v="001/H029/UD/06" /><tag k="height" v="21" /><tag k="species" v="Cupressus sempervirens L." /><tag k="name" v="Cipresso comune" /></node><node id="-175" lat="45.9052" lon="13.0503" version="1"><tag k="survey:date" v="10-Oct-2016" /><tag k="denotation" v="natural_monument" /><tag k="circumference" v="7.8" /><tag k="natural" v="tree" /><tag k="source" v="Regione FVG" /><tag k="ref:mipaaft" v="001/A810/UD/06" /><tag k="height" v="21" /><tag k="species" v="Quercus robur L." /><tag k="name" v="Farnia" /></node><node id="-176" lat="46.4983" lon="13.59569" version="1"><tag k="survey:date" v="09-Oct-2016" /><tag k="denotation" v="natural_monument" /><tag k="circumference" v="2.7" /><tag k="natural" v="tree" /><tag k="source" v="Regione FVG" /><tag k="ref:mipaaft" v="008/L057/UD/06" /><tag k="height" v="24" /><tag k="species" v="Tilia cordata Mill." /><tag k="name" v="Tiglio selvatico" /></node><node id="-177" lat="46.4381" lon="13.54782" version="1"><tag k="survey:date" v="09-Oct-2016" /><tag k="denotation" v="natural_monument" /><tag k="circumference" v="4.9" /><tag k="natural" v="tree" /><tag k="source" v="Regione FVG" /><tag k="ref:mipaaft" v="011/L057/UD/06" /><tag k="height" v="36" /><tag k="species" v="Picea abies (L.) H. Karst." /><tag k="name" v="Abete rosso" /></node><node id="-178" lat="46.0691" lon="13.23602" version="1"><tag k="ref:mipaaft" v="025/L483/UD/06" /><tag k="denotation" v="natural_monument" /><tag k="natural" v="tree" /><tag k="survey:date" v="19-Sep-2016" /><tag k="source" v="Regione FVG" /></node></osm>